( pcb2gcode 1.3.2 )
( Software-independent Gcode )

G94 ( Millimeters per minute feed rate. )
G21 ( Units == Millimeters. )

G90 ( Absolute coordinates. )
S10000 ( RPM spindle speed. )
G64 P0.01000 ( set maximum deviation from commanded toolpath )
F600.00000 ( Feedrate. )

F600.00000 ( Feedrate. )
M3 ( Spindle on clockwise. )
G04 P0 ( dwell for no time -- G64 should not smooth over this point )
G00 Z5.00000 ( retract )

G00 X5.98360 Y26.06180 ( rapid move to begin. )
F300.00000
G01 Z-0.05000
G04 P0 ( dwell for no time -- G64 should not smooth over this point )
F600.00000
X5.98360 Y26.06180
X5.83120 Y26.01100
X5.70420 Y25.88400
X5.70420 Y25.83320
X5.57720 Y25.70620
X5.52640 Y25.55380
X5.52640 Y24.91880
X5.62800 Y24.69020
X5.83120 Y24.46160
X5.98360 Y24.41080
X6.05980 Y24.33460
X6.21220 Y24.30920
X6.84720 Y24.33460
X6.97420 Y24.43620
X7.07580 Y24.46160
X7.27900 Y24.69020
X7.38060 Y24.91880
X7.38060 Y25.55380
X7.27900 Y25.78240
X7.07580 Y26.01100
X6.92340 Y26.06180
X6.84720 Y26.13800
X6.21220 Y26.16340
X6.05980 Y26.13800
X5.98360 Y26.06180
G04 P0 ( dwell for no time -- G64 should not smooth over this point )
G00 Z5.00000 ( retract )

G00 X5.98360 Y28.60180 ( rapid move to begin. )
F300.00000
G01 Z-0.05000
G04 P0 ( dwell for no time -- G64 should not smooth over this point )
F600.00000
X5.98360 Y28.60180
X5.83120 Y28.55100
X5.70420 Y28.42400
X5.70420 Y28.37320
X5.57720 Y28.24620
X5.52640 Y28.09380
X5.52640 Y27.45880
X5.62800 Y27.23020
X5.83120 Y27.00160
X5.98360 Y26.95080
X6.05980 Y26.87460
X6.21220 Y26.84920
X6.84720 Y26.87460
X6.97420 Y26.97620
X7.07580 Y27.00160
X7.27900 Y27.23020
X7.38060 Y27.45880
X7.38060 Y28.09380
X7.27900 Y28.32240
X7.07580 Y28.55100
X6.92340 Y28.60180
X6.84720 Y28.67800
X6.21220 Y28.70340
X6.05980 Y28.67800
X5.98360 Y28.60180
G04 P0 ( dwell for no time -- G64 should not smooth over this point )
G00 Z5.00000 ( retract )

G00 X5.98360 Y33.68180 ( rapid move to begin. )
F300.00000
G01 Z-0.05000
G04 P0 ( dwell for no time -- G64 should not smooth over this point )
F600.00000
X5.98360 Y33.68180
X5.83120 Y33.63100
X5.70420 Y33.50400
X5.70420 Y33.45320
X5.57720 Y33.32620
X5.52640 Y33.17380
X5.52640 Y32.53880
X5.62800 Y32.31020
X5.83120 Y32.08160
X5.98360 Y32.03080
X6.05980 Y31.95460
X6.21220 Y31.92920
X6.84720 Y31.95460
X6.97420 Y32.05620
X7.07580 Y32.08160
X7.27900 Y32.31020
X7.38060 Y32.53880
X7.38060 Y33.17380
X7.27900 Y33.40240
X7.07580 Y33.63100
X6.92340 Y33.68180
X6.84720 Y33.75800
X6.21220 Y33.78340
X6.05980 Y33.75800
X5.98360 Y33.68180
G04 P0 ( dwell for no time -- G64 should not smooth over this point )
G00 Z5.00000 ( retract )

G00 X5.98360 Y36.22180 ( rapid move to begin. )
F300.00000
G01 Z-0.05000
G04 P0 ( dwell for no time -- G64 should not smooth over this point )
F600.00000
X5.98360 Y36.22180
X5.83120 Y36.17100
X5.70420 Y36.04400
X5.70420 Y35.99320
X5.57720 Y35.86620
X5.52640 Y35.71380
X5.52640 Y35.07880
X5.62800 Y34.85020
X5.83120 Y34.62160
X5.98360 Y34.57080
X6.05980 Y34.49460
X6.21220 Y34.46920
X6.84720 Y34.49460
X6.97420 Y34.59620
X7.07580 Y34.62160
X7.27900 Y34.85020
X7.38060 Y35.07880
X7.38060 Y35.71380
X7.27900 Y35.94240
X7.07580 Y36.17100
X6.92340 Y36.22180
X6.84720 Y36.29800
X6.21220 Y36.32340
X6.05980 Y36.29800
X5.98360 Y36.22180
G04 P0 ( dwell for no time -- G64 should not smooth over this point )
G00 Z5.00000 ( retract )

G00 X11.34300 Y44.57840 ( rapid move to begin. )
F300.00000
G01 Z-0.05000
G04 P0 ( dwell for no time -- G64 should not smooth over this point )
F600.00000
X11.34300 Y44.57840
X11.08900 Y44.45140
X10.96200 Y44.32440
X10.83500 Y44.09580
X10.83500 Y43.99420
X10.78420 Y43.91800
X10.78420 Y43.28300
X10.91120 Y42.95280
X11.08900 Y42.74960
X11.13980 Y42.74960
X11.16520 Y42.69880
X11.26680 Y42.67340
X11.39380 Y42.57180
X11.57160 Y42.54640
X11.57160 Y42.14000
X9.79360 Y40.38740
X9.71740 Y40.23500
X9.71740 Y22.07400
X8.14260 Y20.49920
X7.35520 Y20.49920
X7.32980 Y20.62620
X7.20280 Y20.75320
X7.20280 Y20.80400
X7.07580 Y20.93100
X6.92340 Y20.98180
X6.84720 Y21.05800
X6.21220 Y21.08340
X6.05980 Y21.05800
X5.98360 Y20.98180
X5.83120 Y20.93100
X5.57720 Y20.62620
X5.52640 Y20.47380
X5.52640 Y19.83880
X5.57720 Y19.68640
X5.70420 Y19.55940
X5.70420 Y19.50860
X5.83120 Y19.38160
X5.98360 Y19.33080
X6.05980 Y19.25460
X6.84720 Y19.25460
X6.97420 Y19.35620
X7.07580 Y19.38160
X7.20280 Y19.50860
X7.20280 Y19.55940
X7.32980 Y19.68640
X7.35520 Y19.81340
X8.49820 Y19.81340
X8.59980 Y19.86420
X10.32700 Y21.59140
X10.40320 Y21.74380
X10.40320 Y39.90480
X12.18120 Y41.65740
X12.25740 Y41.80980
X12.25740 Y42.57180
X12.43520 Y42.62260
X12.76540 Y42.87660
X12.94320 Y43.28300
X12.94320 Y43.91800
X12.81620 Y44.24820
X12.63840 Y44.45140
X12.58760 Y44.45140
X12.56220 Y44.50220
X12.46060 Y44.52760
X12.33360 Y44.62920
X12.07960 Y44.68000
X11.64780 Y44.68000
X11.39380 Y44.62920
X11.34300 Y44.57840
G04 P0 ( dwell for no time -- G64 should not smooth over this point )
G00 Z5.00000 ( retract )

G00 X13.88300 Y44.57840 ( rapid move to begin. )
F300.00000
G01 Z-0.05000
G04 P0 ( dwell for no time -- G64 should not smooth over this point )
F600.00000
X13.88300 Y44.57840
X13.62900 Y44.45140
X13.50200 Y44.32440
X13.37500 Y44.09580
X13.37500 Y43.99420
X13.32420 Y43.91800
X13.32420 Y43.28300
X13.45120 Y42.95280
X13.62900 Y42.74960
X13.67980 Y42.74960
X13.70520 Y42.69880
X13.80680 Y42.67340
X13.93380 Y42.57180
X14.11160 Y42.54640
X14.11160 Y42.16540
X11.80020 Y39.87940
X11.72400 Y39.72700
X11.72400 Y20.77860
X8.90460 Y17.95920
X7.35520 Y17.95920
X7.32980 Y18.08620
X7.07580 Y18.39100
X6.92340 Y18.44180
X6.84720 Y18.51800
X6.69480 Y18.54340
X6.05980 Y18.51800
X5.98360 Y18.44180
X5.83120 Y18.39100
X5.57720 Y18.08620
X5.52640 Y17.93380
X5.52640 Y17.29880
X5.57720 Y17.14640
X5.70420 Y17.01940
X5.70420 Y16.96860
X5.83120 Y16.84160
X5.98360 Y16.79080
X6.05980 Y16.71460
X6.84720 Y16.71460
X6.97420 Y16.81620
X7.07580 Y16.84160
X7.20280 Y16.96860
X7.20280 Y17.01940
X7.32980 Y17.14640
X7.35520 Y17.27340
X9.26020 Y17.27340
X9.36180 Y17.32420
X12.33360 Y20.29600
X12.40980 Y20.44840
X12.40980 Y39.39680
X14.72120 Y41.68280
X14.79740 Y41.83520
X14.79740 Y42.57180
X14.97520 Y42.62260
X15.30540 Y42.87660
X15.48320 Y43.28300
X15.48320 Y43.91800
X15.35620 Y44.24820
X15.17840 Y44.45140
X15.12760 Y44.45140
X15.10220 Y44.50220
X15.00060 Y44.52760
X14.87360 Y44.62920
X14.61960 Y44.68000
X14.18780 Y44.68000
X13.93380 Y44.62920
X13.88300 Y44.57840
G04 P0 ( dwell for no time -- G64 should not smooth over this point )
G00 Z5.00000 ( retract )

G00 X16.42300 Y44.57840 ( rapid move to begin. )
F300.00000
G01 Z-0.05000
G04 P0 ( dwell for no time -- G64 should not smooth over this point )
F600.00000
X16.42300 Y44.57840
X16.16900 Y44.45140
X16.04200 Y44.32440
X15.91500 Y44.09580
X15.91500 Y43.99420
X15.86420 Y43.91800
X15.86420 Y43.28300
X15.91500 Y43.20680
X15.91500 Y43.10520
X16.06740 Y42.85120
X16.24520 Y42.69880
X16.34680 Y42.67340
X16.37220 Y42.62260
X16.60080 Y42.54640
X16.60080 Y41.65740
X14.31480 Y39.37140
X14.23860 Y39.21900
X14.23860 Y26.95080
X14.31480 Y26.79840
X16.16900 Y24.94420
X16.27060 Y24.89340
X20.79180 Y24.89340
X20.81720 Y24.76640
X20.94420 Y24.63940
X20.94420 Y24.58860
X21.07120 Y24.46160
X21.22360 Y24.41080
X21.29980 Y24.33460
X21.45220 Y24.30920
X22.08720 Y24.33460
X22.21420 Y24.43620
X22.31580 Y24.46160
X22.44280 Y24.58860
X22.44280 Y24.63940
X22.56980 Y24.76640
X22.62060 Y24.91880
X22.62060 Y25.55380
X22.56980 Y25.70620
X22.31580 Y26.01100
X22.16340 Y26.06180
X22.08720 Y26.13800
X21.93480 Y26.16340
X21.29980 Y26.13800
X21.22360 Y26.06180
X21.07120 Y26.01100
X20.94420 Y25.88400
X20.94420 Y25.83320
X20.81720 Y25.70620
X20.79180 Y25.57920
X16.62620 Y25.57920
X14.92440 Y27.28100
X14.92440 Y38.88880
X17.21040 Y41.17480
X17.28660 Y41.32720
X17.28660 Y42.54640
X17.51520 Y42.62260
X17.54060 Y42.67340
X17.64220 Y42.69880
X17.79460 Y42.82580
X17.89620 Y42.95280
X18.02320 Y43.28300
X18.02320 Y43.91800
X17.89620 Y44.24820
X17.71840 Y44.45140
X17.66760 Y44.45140
X17.64220 Y44.50220
X17.54060 Y44.52760
X17.41360 Y44.62920
X17.15960 Y44.68000
X16.72780 Y44.68000
X16.47380 Y44.62920
X16.42300 Y44.57840
G04 P0 ( dwell for no time -- G64 should not smooth over this point )
G00 Z5.00000 ( retract )

G00 X18.96300 Y44.57840 ( rapid move to begin. )
F300.00000
G01 Z-0.05000
G04 P0 ( dwell for no time -- G64 should not smooth over this point )
F600.00000
X18.96300 Y44.57840
X18.78520 Y44.50220
X18.58200 Y44.32440
X18.40420 Y43.91800
X18.40420 Y43.28300
X18.58200 Y42.87660
X18.91220 Y42.62260
X19.26780 Y42.52100
X19.85200 Y42.54640
X20.25840 Y42.74960
X20.43620 Y42.95280
X20.56320 Y43.28300
X20.56320 Y43.91800
X20.38540 Y44.32440
X20.18220 Y44.50220
X19.85200 Y44.65460
X19.26780 Y44.68000
X19.01380 Y44.62920
X18.96300 Y44.57840
G04 P0 ( dwell for no time -- G64 should not smooth over this point )
G00 Z5.00000 ( retract )

G00 X21.50300 Y44.57840 ( rapid move to begin. )
F300.00000
G01 Z-0.05000
G04 P0 ( dwell for no time -- G64 should not smooth over this point )
F600.00000
X21.50300 Y44.57840
X21.32520 Y44.50220
X21.12200 Y44.32440
X20.94420 Y43.91800
X20.94420 Y43.28300
X21.12200 Y42.87660
X21.45220 Y42.62260
X21.80780 Y42.52100
X22.39200 Y42.54640
X22.79840 Y42.74960
X22.97620 Y42.95280
X23.10320 Y43.28300
X23.10320 Y43.91800
X22.92540 Y44.32440
X22.72220 Y44.50220
X22.39200 Y44.65460
X21.80780 Y44.68000
X21.55380 Y44.62920
X21.50300 Y44.57840
G04 P0 ( dwell for no time -- G64 should not smooth over this point )
G00 Z5.00000 ( retract )

G00 X23.58580 Y37.82200 ( rapid move to begin. )
F300.00000
G01 Z-0.05000
G04 P0 ( dwell for no time -- G64 should not smooth over this point )
F600.00000
X23.58580 Y37.82200
X22.06180 Y36.29800
X21.29980 Y36.29800
X21.22360 Y36.22180
X21.07120 Y36.17100
X20.94420 Y36.04400
X20.94420 Y35.99320
X20.81720 Y35.86620
X20.76640 Y35.71380
X20.76640 Y35.07880
X20.81720 Y34.92640
X21.07120 Y34.62160
X21.22360 Y34.57080
X21.29980 Y34.49460
X21.45220 Y34.46920
X22.08720 Y34.49460
X22.21420 Y34.59620
X22.31580 Y34.62160
X22.51900 Y34.85020
X22.62060 Y35.07880
X22.59520 Y35.76460
X24.06840 Y37.23780
X28.86900 Y37.23780
X31.73920 Y34.39300
X31.73920 Y31.77680
X31.53600 Y31.77680
X31.38360 Y31.72600
X31.30740 Y31.62440
X31.28200 Y30.63380
X31.33280 Y30.48140
X31.53600 Y30.37980
X32.62820 Y30.37980
X32.83140 Y30.48140
X32.88220 Y30.63380
X32.85680 Y31.62440
X32.78060 Y31.72600
X32.62820 Y31.77680
X32.42500 Y31.77680
X32.39960 Y34.79940
X29.32620 Y37.87280
X29.22460 Y37.92360
X23.71280 Y37.92360
X23.58580 Y37.82200
G04 P0 ( dwell for no time -- G64 should not smooth over this point )
G00 Z5.00000 ( retract )

G00 X34.78720 Y40.74300 ( rapid move to begin. )
F300.00000
G01 Z-0.05000
G04 P0 ( dwell for no time -- G64 should not smooth over this point )
F600.00000
X34.78720 Y40.74300
X34.73640 Y40.71760
X34.71100 Y40.59060
X34.71100 Y39.42220
X19.90280 Y39.42220
X19.80120 Y39.37140
X18.30260 Y37.87280
X18.22640 Y37.72040
X18.25180 Y31.37040
X19.57260 Y30.02420
X19.67420 Y29.97340
X20.79180 Y29.97340
X20.81720 Y29.84640
X21.07120 Y29.54160
X21.22360 Y29.49080
X21.29980 Y29.41460
X21.45220 Y29.38920
X22.08720 Y29.41460
X22.21420 Y29.51620
X22.31580 Y29.54160
X22.56980 Y29.84640
X22.62060 Y29.99880
X22.62060 Y30.63380
X22.56980 Y30.78620
X22.44280 Y30.91320
X22.44280 Y30.96400
X22.31580 Y31.09100
X22.16340 Y31.14180
X22.13800 Y31.19260
X21.93480 Y31.24340
X21.29980 Y31.21800
X21.22360 Y31.14180
X21.07120 Y31.09100
X20.94420 Y30.96400
X20.94420 Y30.91320
X20.81720 Y30.78620
X20.79180 Y30.65920
X20.02980 Y30.65920
X18.91220 Y31.77680
X18.91220 Y37.39020
X20.25840 Y38.73640
X34.71100 Y38.73640
X34.71100 Y37.56800
X34.73640 Y37.44100
X34.81260 Y37.36480
X34.93960 Y37.31400
X36.15880 Y37.33940
X36.28580 Y37.44100
X36.31120 Y37.56800
X36.28580 Y40.71760
X36.08260 Y40.84460
X34.93960 Y40.84460
X34.81260 Y40.79380
X34.78720 Y40.74300
G04 P0 ( dwell for no time -- G64 should not smooth over this point )
G00 Z5.00000 ( retract )

G00 X34.83800 Y29.69400 ( rapid move to begin. )
F300.00000
G01 Z-0.05000
G04 P0 ( dwell for no time -- G64 should not smooth over this point )
F600.00000
X34.83800 Y29.69400
X34.78720 Y29.64320
X34.76180 Y29.44000
X32.88220 Y29.44000
X32.83140 Y29.69400
X32.62820 Y29.79560
X31.53600 Y29.79560
X31.38360 Y29.74480
X31.28200 Y29.54160
X31.28200 Y28.65260
X31.33280 Y28.50020
X31.53600 Y28.39860
X32.62820 Y28.39860
X32.83140 Y28.50020
X32.88220 Y28.75420
X34.76180 Y28.75420
X34.78720 Y28.55100
X34.86340 Y28.44940
X35.01580 Y28.39860
X35.21900 Y28.39860
X35.21900 Y25.32520
X35.16820 Y25.32520
X35.11740 Y25.22360
X35.11740 Y23.82660
X35.16820 Y23.72500
X35.24440 Y23.69960
X35.77780 Y23.69960
X35.85400 Y23.72500
X35.90480 Y23.82660
X35.90480 Y28.39860
X36.10800 Y28.39860
X36.26040 Y28.44940
X36.33660 Y28.55100
X36.36200 Y29.54160
X36.31120 Y29.69400
X36.10800 Y29.79560
X35.01580 Y29.79560
X34.86340 Y29.74480
X34.83800 Y29.69400
G04 P0 ( dwell for no time -- G64 should not smooth over this point )
G00 Z5.00000 ( retract )

G00 X34.20300 Y23.36940 ( rapid move to begin. )
F300.00000
G01 Z-0.05000
G04 P0 ( dwell for no time -- G64 should not smooth over this point )
F600.00000
X34.20300 Y23.36940
X34.17760 Y21.94700
X34.22840 Y21.89620
X34.22840 Y20.44840
X34.02520 Y20.24520
X33.89820 Y19.91500
X33.89820 Y19.28000
X34.07600 Y18.87360
X34.40620 Y18.61960
X34.76180 Y18.51800
X35.34600 Y18.54340
X35.75240 Y18.74660
X35.93020 Y18.94980
X36.05720 Y19.28000
X36.05720 Y19.91500
X35.93020 Y20.24520
X35.75240 Y20.44840
X35.70160 Y20.44840
X35.67620 Y20.49920
X35.57460 Y20.52460
X35.44760 Y20.62620
X35.19360 Y20.67700
X34.91420 Y20.67700
X34.91420 Y21.89620
X34.96500 Y21.94700
X34.96500 Y23.34400
X34.91420 Y23.44560
X34.30460 Y23.47100
X34.22840 Y23.44560
X34.20300 Y23.36940
G04 P0 ( dwell for no time -- G64 should not smooth over this point )
G00 Z5.00000 ( retract )

G00 X41.84840 Y24.18220 ( rapid move to begin. )
F300.00000
G01 Z-0.05000
G04 P0 ( dwell for no time -- G64 should not smooth over this point )
F600.00000
X41.84840 Y24.18220
X41.77220 Y24.02980
X41.77220 Y23.14080
X41.82300 Y22.98840
X41.97540 Y22.91220
X41.97540 Y20.67700
X41.49280 Y20.67700
X41.49280 Y18.51800
X43.65180 Y18.51800
X43.65180 Y20.67700
X43.14380 Y20.67700
X43.14380 Y22.91220
X43.27080 Y22.93760
X43.32160 Y22.98840
X43.37240 Y23.14080
X43.34700 Y24.13140
X43.27080 Y24.23300
X43.11840 Y24.28380
X42.02620 Y24.28380
X41.87380 Y24.23300
X41.84840 Y24.18220
G04 P0 ( dwell for no time -- G64 should not smooth over this point )
G00 Z5.00000 ( retract )

G00 X48.75720 Y21.05800 ( rapid move to begin. )
F300.00000
G01 Z-0.05000
G04 P0 ( dwell for no time -- G64 should not smooth over this point )
F600.00000
X48.75720 Y21.05800
X48.68100 Y21.00720
X48.60480 Y20.82940
X48.63020 Y19.43240
X48.83340 Y19.22920
X49.23980 Y19.20380
X49.23980 Y11.71080
X48.45240 Y10.92340
X48.27460 Y10.97420
X47.69040 Y10.94880
X47.38560 Y10.79640
X47.20780 Y10.61860
X47.08080 Y10.31380
X47.08080 Y9.67880
X47.13160 Y9.52640
X47.20780 Y9.37400
X47.38560 Y9.19620
X47.48720 Y9.17080
X47.61420 Y9.06920
X47.84280 Y9.01840
X48.27460 Y9.01840
X48.50320 Y9.06920
X48.63020 Y9.17080
X48.73180 Y9.19620
X48.90960 Y9.37400
X49.03660 Y9.67880
X49.03660 Y10.31380
X48.98580 Y10.39000
X49.84940 Y11.22820
X49.92560 Y11.38060
X49.92560 Y19.20380
X50.33200 Y19.22920
X50.48440 Y19.35620
X50.56060 Y19.50860
X50.56060 Y20.82940
X50.53520 Y20.93100
X50.40820 Y21.08340
X50.25580 Y21.15960
X48.90960 Y21.15960
X48.75720 Y21.05800
G04 P0 ( dwell for no time -- G64 should not smooth over this point )
G00 Z5.00000 ( retract )

G00 X60.84760 Y14.68260 ( rapid move to begin. )
F300.00000
G01 Z-0.05000
G04 P0 ( dwell for no time -- G64 should not smooth over this point )
F600.00000
X60.84760 Y14.68260
X60.77140 Y14.53020
X60.79680 Y13.53960
X60.87300 Y13.43800
X61.02540 Y13.38720
X61.22860 Y13.38720
X61.22860 Y5.69100
X59.37440 Y5.69100
X59.34900 Y5.84340
X59.22200 Y6.07200
X58.89180 Y6.32600
X58.53620 Y6.42760
X57.95200 Y6.40220
X57.54560 Y6.19900
X57.41860 Y6.07200
X57.29160 Y5.84340
X57.29160 Y5.74180
X57.24080 Y5.66560
X57.24080 Y5.03060
X57.29160 Y4.95440
X57.29160 Y4.85280
X57.41860 Y4.62420
X57.54560 Y4.49720
X57.59640 Y4.49720
X57.62180 Y4.44640
X57.72340 Y4.42100
X57.85040 Y4.31940
X58.10440 Y4.26860
X58.53620 Y4.26860
X58.79020 Y4.31940
X58.91720 Y4.42100
X59.01880 Y4.44640
X59.04420 Y4.49720
X59.09500 Y4.49720
X59.27280 Y4.70040
X59.37440 Y5.00520
X63.76860 Y5.00520
X63.79400 Y4.85280
X63.92100 Y4.62420
X64.04800 Y4.49720
X64.09880 Y4.49720
X64.12420 Y4.44640
X64.22580 Y4.42100
X64.35280 Y4.31940
X64.60680 Y4.26860
X65.03860 Y4.26860
X65.29260 Y4.31940
X65.41960 Y4.42100
X65.52120 Y4.44640
X65.54660 Y4.49720
X65.59740 Y4.49720
X65.72440 Y4.62420
X65.90220 Y5.03060
X65.90220 Y5.66560
X65.85140 Y5.74180
X65.85140 Y5.84340
X65.72440 Y6.07200
X65.59740 Y6.19900
X65.54660 Y6.19900
X65.52120 Y6.24980
X65.41960 Y6.27520
X65.29260 Y6.37680
X65.03860 Y6.42760
X64.60680 Y6.42760
X64.35280 Y6.37680
X64.22580 Y6.27520
X64.12420 Y6.24980
X64.09880 Y6.19900
X64.04800 Y6.19900
X63.92100 Y6.07200
X63.79400 Y5.84340
X63.76860 Y5.69100
X61.91440 Y5.69100
X61.91440 Y13.38720
X62.11760 Y13.38720
X62.27000 Y13.43800
X62.34620 Y13.53960
X62.37160 Y14.53020
X62.27000 Y14.73340
X62.11760 Y14.78420
X61.02540 Y14.78420
X60.87300 Y14.73340
X60.84760 Y14.68260
G04 P0 ( dwell for no time -- G64 should not smooth over this point )
G00 Z5.00000 ( retract )

G00 X48.75720 Y6.04660 ( rapid move to begin. )
F300.00000
G01 Z-0.05000
G04 P0 ( dwell for no time -- G64 should not smooth over this point )
F600.00000
X48.75720 Y6.04660
X48.68100 Y5.99580
X48.60480 Y5.81800
X48.60480 Y4.52260
X48.68100 Y4.34480
X48.90960 Y4.19240
X50.25580 Y4.19240
X50.40820 Y4.26860
X50.56060 Y4.49720
X50.56060 Y5.81800
X50.48440 Y5.99580
X50.25580 Y6.14820
X48.90960 Y6.14820
X48.75720 Y6.04660
G04 P0 ( dwell for no time -- G64 should not smooth over this point )
G00 Z5.00000 ( retract )

G00 X60.84760 Y30.17660 ( rapid move to begin. )
F300.00000
G01 Z-0.05000
G04 P0 ( dwell for no time -- G64 should not smooth over this point )
F600.00000
X60.84760 Y30.17660
X60.77140 Y30.02420
X60.79680 Y29.03360
X60.87300 Y28.93200
X61.02540 Y28.88120
X61.22860 Y28.88120
X61.22860 Y20.67700
X59.37440 Y20.67700
X59.34900 Y20.82940
X59.22200 Y21.05800
X58.89180 Y21.31200
X58.53620 Y21.41360
X58.10440 Y21.41360
X57.74880 Y21.31200
X57.72340 Y21.26120
X57.54560 Y21.18500
X57.36780 Y20.98180
X57.24080 Y20.65160
X57.24080 Y20.01660
X57.36780 Y19.68640
X57.54560 Y19.48320
X57.59640 Y19.48320
X57.62180 Y19.43240
X57.72340 Y19.40700
X57.85040 Y19.30540
X58.10440 Y19.25460
X58.53620 Y19.25460
X58.89180 Y19.35620
X59.22200 Y19.61020
X59.34900 Y19.83880
X59.37440 Y19.99120
X61.22860 Y19.99120
X61.22860 Y16.79080
X61.02540 Y16.79080
X60.87300 Y16.74000
X60.79680 Y16.63840
X60.77140 Y15.64780
X60.84760 Y15.47000
X61.02540 Y15.39380
X62.11760 Y15.39380
X62.27000 Y15.44460
X62.37160 Y15.64780
X62.37160 Y16.53680
X62.27000 Y16.74000
X62.11760 Y16.79080
X61.91440 Y16.79080
X61.91440 Y19.99120
X63.76860 Y19.99120
X63.79400 Y19.83880
X63.92100 Y19.61020
X64.25120 Y19.35620
X64.60680 Y19.25460
X65.03860 Y19.25460
X65.39420 Y19.35620
X65.41960 Y19.40700
X65.59740 Y19.48320
X65.77520 Y19.68640
X65.90220 Y20.01660
X65.90220 Y20.65160
X65.77520 Y20.98180
X65.59740 Y21.18500
X65.54660 Y21.18500
X65.52120 Y21.23580
X65.41960 Y21.26120
X65.29260 Y21.36280
X65.03860 Y21.41360
X64.60680 Y21.41360
X64.25120 Y21.31200
X63.92100 Y21.05800
X63.79400 Y20.82940
X63.76860 Y20.67700
X61.91440 Y20.67700
X61.91440 Y28.88120
X62.11760 Y28.88120
X62.27000 Y28.93200
X62.34620 Y29.03360
X62.37160 Y30.02420
X62.27000 Y30.22740
X62.11760 Y30.27820
X61.02540 Y30.27820
X60.87300 Y30.22740
X60.84760 Y30.17660
G04 P0 ( dwell for no time -- G64 should not smooth over this point )
G00 Z5.00000 ( retract )

G00 X48.75720 Y36.04400 ( rapid move to begin. )
F300.00000
G01 Z-0.05000
G04 P0 ( dwell for no time -- G64 should not smooth over this point )
F600.00000
X48.75720 Y36.04400
X48.68100 Y35.99320
X48.60480 Y35.81540
X48.63020 Y34.41840
X48.83340 Y34.21520
X49.23980 Y34.18980
X49.23980 Y26.72220
X48.45240 Y25.93480
X48.27460 Y25.98560
X47.69040 Y25.96020
X47.38560 Y25.80780
X47.20780 Y25.63000
X47.08080 Y25.32520
X47.08080 Y24.69020
X47.13160 Y24.53780
X47.20780 Y24.38540
X47.38560 Y24.20760
X47.48720 Y24.18220
X47.61420 Y24.08060
X47.84280 Y24.02980
X48.42700 Y24.05520
X48.73180 Y24.20760
X48.90960 Y24.38540
X49.03660 Y24.69020
X49.03660 Y25.32520
X48.98580 Y25.40140
X49.84940 Y26.23960
X49.92560 Y26.39200
X49.92560 Y34.18980
X50.33200 Y34.21520
X50.48440 Y34.34220
X50.56060 Y34.49460
X50.56060 Y35.81540
X50.53520 Y35.91700
X50.40820 Y36.06940
X50.25580 Y36.14560
X48.90960 Y36.14560
X48.75720 Y36.04400
G04 P0 ( dwell for no time -- G64 should not smooth over this point )
G00 Z5.00000 ( retract )

G00 X48.75720 Y51.05540 ( rapid move to begin. )
F300.00000
G01 Z-0.05000
G04 P0 ( dwell for no time -- G64 should not smooth over this point )
F600.00000
X48.75720 Y51.05540
X48.68100 Y51.00460
X48.60480 Y50.82680
X48.63020 Y49.42980
X48.83340 Y49.22660
X49.23980 Y49.20120
X49.23980 Y41.70820
X48.45240 Y40.92080
X48.27460 Y40.97160
X47.69040 Y40.94620
X47.38560 Y40.79380
X47.20780 Y40.61600
X47.08080 Y40.31120
X47.08080 Y39.67620
X47.13160 Y39.52380
X47.20780 Y39.37140
X47.38560 Y39.19360
X47.48720 Y39.16820
X47.61420 Y39.06660
X47.84280 Y39.01580
X48.42700 Y39.04120
X48.73180 Y39.19360
X48.90960 Y39.37140
X49.03660 Y39.67620
X49.03660 Y40.31120
X48.98580 Y40.38740
X49.84940 Y41.22560
X49.92560 Y41.37800
X49.92560 Y49.20120
X50.33200 Y49.22660
X50.48440 Y49.35360
X50.56060 Y49.50600
X50.56060 Y50.82680
X50.53520 Y50.92840
X50.40820 Y51.08080
X50.25580 Y51.15700
X48.90960 Y51.15700
X48.75720 Y51.05540
G04 P0 ( dwell for no time -- G64 should not smooth over this point )
G00 Z5.00000 ( retract )

G00 X42.83900 Y59.69140 ( rapid move to begin. )
F300.00000
G01 Z-0.05000
G04 P0 ( dwell for no time -- G64 should not smooth over this point )
F600.00000
X42.83900 Y59.69140
X42.76280 Y59.53900
X42.78820 Y58.54840
X42.86440 Y58.44680
X43.01680 Y58.39600
X43.22000 Y58.39600
X43.22000 Y41.22560
X42.43260 Y40.41280
X42.40720 Y40.71760
X42.20400 Y40.84460
X41.06100 Y40.84460
X40.85780 Y40.71760
X40.83240 Y37.56800
X40.85780 Y37.44100
X41.06100 Y37.31400
X42.20400 Y37.31400
X42.40720 Y37.44100
X42.43260 Y39.37140
X43.82960 Y40.74300
X43.90580 Y40.89540
X43.90580 Y58.39600
X44.10900 Y58.39600
X44.26140 Y58.44680
X44.33760 Y58.54840
X44.36300 Y59.53900
X44.31220 Y59.69140
X44.10900 Y59.79300
X43.01680 Y59.79300
X42.86440 Y59.74220
X42.83900 Y59.69140
G04 P0 ( dwell for no time -- G64 should not smooth over this point )
G00 Z5.00000 ( retract )

G00 X48.75720 Y66.06680 ( rapid move to begin. )
F300.00000
G01 Z-0.05000
G04 P0 ( dwell for no time -- G64 should not smooth over this point )
F600.00000
X48.75720 Y66.06680
X48.68100 Y66.01600
X48.60480 Y65.83820
X48.63020 Y64.44120
X48.83340 Y64.23800
X49.23980 Y64.21260
X49.23980 Y56.71960
X48.45240 Y55.93220
X48.27460 Y55.98300
X47.69040 Y55.95760
X47.38560 Y55.80520
X47.20780 Y55.62740
X47.08080 Y55.32260
X47.08080 Y54.68760
X47.13160 Y54.53520
X47.20780 Y54.38280
X47.38560 Y54.20500
X47.48720 Y54.17960
X47.61420 Y54.07800
X47.84280 Y54.02720
X48.42700 Y54.05260
X48.73180 Y54.20500
X48.90960 Y54.38280
X49.03660 Y54.68760
X49.03660 Y55.32260
X48.98580 Y55.39880
X49.84940 Y56.23700
X49.92560 Y56.38940
X49.92560 Y64.21260
X50.33200 Y64.23800
X50.48440 Y64.36500
X50.56060 Y64.51740
X50.56060 Y65.83820
X50.53520 Y65.93980
X50.40820 Y66.09220
X50.25580 Y66.16840
X48.90960 Y66.16840
X48.75720 Y66.06680
G04 P0 ( dwell for no time -- G64 should not smooth over this point )
G00 Z5.00000 ( retract )

G00 X47.56340 Y70.89280 ( rapid move to begin. )
F300.00000
G01 Z-0.05000
G04 P0 ( dwell for no time -- G64 should not smooth over this point )
F600.00000
X47.56340 Y70.89280
X47.38560 Y70.81660
X47.20780 Y70.63880
X47.10620 Y70.35940
X44.82020 Y70.35940
X44.71860 Y70.30860
X43.24540 Y68.81000
X43.22000 Y61.79960
X43.01680 Y61.79960
X42.86440 Y61.74880
X42.78820 Y61.64720
X42.76280 Y60.65660
X42.86440 Y60.45340
X43.01680 Y60.40260
X44.10900 Y60.40260
X44.28680 Y60.47880
X44.36300 Y60.65660
X44.33760 Y61.64720
X44.26140 Y61.74880
X44.10900 Y61.79960
X43.90580 Y61.79960
X43.90580 Y68.40360
X45.17580 Y69.67360
X47.10620 Y69.67360
X47.20780 Y69.39420
X47.38560 Y69.21640
X47.48720 Y69.19100
X47.61420 Y69.08940
X47.84280 Y69.03860
X48.42700 Y69.06400
X48.73180 Y69.21640
X48.90960 Y69.39420
X49.03660 Y69.69900
X49.03660 Y70.33400
X48.90960 Y70.63880
X48.73180 Y70.81660
X48.42700 Y70.96900
X47.84280 Y70.99440
X47.61420 Y70.94360
X47.56340 Y70.89280
G04 P0 ( dwell for no time -- G64 should not smooth over this point )
G00 Z5.00000 ( retract )

G00 X43.27080 Y72.82320 ( rapid move to begin. )
F300.00000
G01 Z-0.05000
G04 P0 ( dwell for no time -- G64 should not smooth over this point )
F600.00000
X43.27080 Y72.82320
X40.80700 Y70.38480
X40.73080 Y70.23240
X40.73080 Y60.32640
X38.92740 Y58.52300
X37.78440 Y58.52300
X37.68280 Y58.47220
X37.55580 Y58.29440
X37.53040 Y56.71960
X37.63200 Y56.46560
X37.78440 Y56.38940
X37.78440 Y50.44580
X37.53040 Y49.98860
X37.53040 Y49.91240
X37.30180 Y49.45520
X37.17480 Y49.32820
X37.17480 Y46.86440
X37.30180 Y46.73740
X37.47960 Y46.71200
X37.70820 Y46.20400
X37.75900 Y46.17860
X37.96220 Y45.77220
X37.96220 Y33.91040
X38.03840 Y33.70720
X41.97540 Y29.79560
X41.97540 Y26.26500
X41.87380 Y26.23960
X41.82300 Y26.16340
X39.79100 Y26.13800
X39.68940 Y26.08720
X39.00360 Y25.37600
X38.95280 Y25.37600
X38.03840 Y24.46160
X37.96220 Y24.25840
X37.96220 Y17.34960
X36.28580 Y15.67320
X34.96500 Y15.67320
X34.96500 Y16.61300
X34.93960 Y16.74000
X34.81260 Y16.84160
X33.59340 Y16.86700
X33.46640 Y16.81620
X33.39020 Y16.74000
X33.36480 Y16.61300
X33.36480 Y13.59040
X33.39020 Y13.46340
X33.59340 Y13.33640
X34.73640 Y13.33640
X34.86340 Y13.38720
X34.93960 Y13.46340
X34.96500 Y13.59040
X34.96500 Y14.50480
X36.74300 Y14.50480
X36.94620 Y14.58100
X39.05440 Y16.68920
X39.13060 Y16.89240
X39.13060 Y23.80120
X39.58780 Y24.25840
X39.63860 Y24.25840
X40.34980 Y24.99500
X41.84840 Y24.99500
X41.87380 Y24.94420
X42.02620 Y24.89340
X43.11840 Y24.89340
X43.27080 Y24.94420
X43.37240 Y25.14740
X43.37240 Y26.03640
X43.32160 Y26.18880
X43.27080 Y26.23960
X43.14380 Y26.26500
X43.11840 Y30.35440
X43.06760 Y30.45600
X39.13060 Y34.36760
X39.13060 Y45.69600
X39.18140 Y45.72140
X39.38460 Y46.17860
X39.43540 Y46.20400
X39.66400 Y46.71200
X39.86720 Y46.76280
X39.94340 Y46.86440
X39.94340 Y49.32820
X39.81640 Y49.45520
X39.43540 Y49.50600
X39.23220 Y49.96320
X39.18140 Y49.98860
X38.95280 Y50.44580
X38.95280 Y56.36400
X39.15600 Y56.49100
X39.23220 Y56.71960
X39.23220 Y57.76100
X41.34040 Y59.84380
X41.41660 Y59.99620
X41.41660 Y69.90220
X43.75340 Y72.23900
X50.38280 Y72.23900
X52.23700 Y70.41020
X52.23700 Y68.83540
X50.53520 Y68.83540
X50.43360 Y69.11480
X50.25580 Y69.29260
X50.15420 Y69.31800
X50.02720 Y69.41960
X49.79860 Y69.47040
X49.21440 Y69.44500
X48.90960 Y69.29260
X48.73180 Y69.11480
X48.65560 Y68.96240
X48.60480 Y68.81000
X48.60480 Y68.17500
X48.73180 Y67.87020
X48.90960 Y67.69240
X49.01120 Y67.66700
X49.13820 Y67.56540
X49.36680 Y67.51460
X49.79860 Y67.51460
X50.12880 Y67.61620
X50.43360 Y67.87020
X50.53520 Y68.14960
X52.23700 Y68.14960
X52.23700 Y53.82400
X50.53520 Y53.82400
X50.43360 Y54.10340
X50.25580 Y54.28120
X50.15420 Y54.30660
X50.02720 Y54.40820
X49.79860 Y54.45900
X49.21440 Y54.43360
X48.90960 Y54.28120
X48.73180 Y54.10340
X48.65560 Y53.95100
X48.60480 Y53.79860
X48.60480 Y53.16360
X48.73180 Y52.85880
X48.90960 Y52.68100
X49.01120 Y52.65560
X49.13820 Y52.55400
X49.36680 Y52.50320
X49.79860 Y52.50320
X50.12880 Y52.60480
X50.43360 Y52.85880
X50.53520 Y53.13820
X52.23700 Y53.13820
X52.23700 Y38.81260
X50.53520 Y38.81260
X50.43360 Y39.09200
X50.25580 Y39.26980
X50.15420 Y39.29520
X50.02720 Y39.39680
X49.79860 Y39.44760
X49.21440 Y39.42220
X48.90960 Y39.26980
X48.73180 Y39.09200
X48.65560 Y38.93960
X48.60480 Y38.78720
X48.60480 Y38.15220
X48.73180 Y37.84740
X48.90960 Y37.66960
X49.01120 Y37.64420
X49.13820 Y37.54260
X49.36680 Y37.49180
X49.79860 Y37.49180
X50.12880 Y37.59340
X50.43360 Y37.84740
X50.53520 Y38.12680
X52.23700 Y38.12680
X52.23700 Y23.82660
X50.53520 Y23.82660
X50.43360 Y24.10600
X50.25580 Y24.28380
X50.15420 Y24.30920
X50.02720 Y24.41080
X49.79860 Y24.46160
X49.21440 Y24.43620
X48.90960 Y24.28380
X48.73180 Y24.10600
X48.65560 Y23.95360
X48.60480 Y23.80120
X48.60480 Y23.16620
X48.73180 Y22.86140
X48.90960 Y22.68360
X49.01120 Y22.65820
X49.13820 Y22.55660
X49.36680 Y22.50580
X49.79860 Y22.50580
X50.12880 Y22.60740
X50.43360 Y22.86140
X50.53520 Y23.14080
X52.23700 Y23.14080
X52.23700 Y9.78040
X51.27180 Y8.81520
X50.53520 Y8.81520
X50.43360 Y9.09460
X50.25580 Y9.27240
X49.95100 Y9.42480
X49.36680 Y9.45020
X49.13820 Y9.39940
X49.01120 Y9.29780
X48.90960 Y9.27240
X48.73180 Y9.09460
X48.60480 Y8.78980
X48.60480 Y8.15480
X48.68100 Y7.95160
X48.90960 Y7.67220
X49.01120 Y7.64680
X49.13820 Y7.54520
X49.36680 Y7.49440
X49.79860 Y7.49440
X50.02720 Y7.54520
X50.15420 Y7.64680
X50.25580 Y7.67220
X50.43360 Y7.85000
X50.53520 Y8.12940
X51.62740 Y8.12940
X51.72900 Y8.18020
X52.84660 Y9.29780
X52.92280 Y9.45020
X52.92280 Y70.74040
X52.84660 Y70.89280
X52.59260 Y71.14680
X52.54180 Y71.14680
X50.84000 Y72.87400
X50.73840 Y72.92480
X43.39780 Y72.92480
X43.27080 Y72.82320
G04 P0 ( dwell for no time -- G64 should not smooth over this point )
G00 Z5.00000 ( retract )

G00 X24.04300 Y69.87680 ( rapid move to begin. )
F300.00000
G01 Z-0.05000
G04 P0 ( dwell for no time -- G64 should not smooth over this point )
F600.00000
X24.04300 Y69.87680
X23.78900 Y69.74980
X23.66200 Y69.62280
X23.48420 Y69.21640
X23.48420 Y68.58140
X23.66200 Y68.17500
X23.99220 Y67.92100
X24.34780 Y67.81940
X24.93200 Y67.84480
X25.33840 Y68.04800
X25.51620 Y68.25120
X25.64320 Y68.58140
X25.64320 Y69.21640
X25.46540 Y69.62280
X25.26220 Y69.80060
X24.93200 Y69.95300
X24.34780 Y69.97840
X24.09380 Y69.92760
X24.04300 Y69.87680
G04 P0 ( dwell for no time -- G64 should not smooth over this point )
G00 Z5.00000 ( retract )

G00 X21.50300 Y69.87680 ( rapid move to begin. )
F300.00000
G01 Z-0.05000
G04 P0 ( dwell for no time -- G64 should not smooth over this point )
F600.00000
X21.50300 Y69.87680
X21.24900 Y69.74980
X21.12200 Y69.62280
X20.94420 Y69.21640
X20.94420 Y68.58140
X21.12200 Y68.17500
X21.45220 Y67.92100
X21.80780 Y67.81940
X22.39200 Y67.84480
X22.79840 Y68.04800
X22.97620 Y68.25120
X23.10320 Y68.58140
X23.10320 Y69.21640
X22.92540 Y69.62280
X22.72220 Y69.80060
X22.39200 Y69.95300
X21.80780 Y69.97840
X21.55380 Y69.92760
X21.50300 Y69.87680
G04 P0 ( dwell for no time -- G64 should not smooth over this point )
G00 Z5.00000 ( retract )

G00 X18.96300 Y69.87680 ( rapid move to begin. )
F300.00000
G01 Z-0.05000
G04 P0 ( dwell for no time -- G64 should not smooth over this point )
F600.00000
X18.96300 Y69.87680
X18.78520 Y69.80060
X18.58200 Y69.62280
X18.40420 Y69.21640
X18.40420 Y68.58140
X18.58200 Y68.17500
X18.91220 Y67.92100
X19.26780 Y67.81940
X19.85200 Y67.84480
X20.25840 Y68.04800
X20.43620 Y68.25120
X20.56320 Y68.58140
X20.56320 Y69.21640
X20.38540 Y69.62280
X20.18220 Y69.80060
X19.85200 Y69.95300
X19.26780 Y69.97840
X19.01380 Y69.92760
X18.96300 Y69.87680
G04 P0 ( dwell for no time -- G64 should not smooth over this point )
G00 Z5.00000 ( retract )

G00 X13.88300 Y69.87680 ( rapid move to begin. )
F300.00000
G01 Z-0.05000
G04 P0 ( dwell for no time -- G64 should not smooth over this point )
F600.00000
X13.88300 Y69.87680
X13.62900 Y69.74980
X13.50200 Y69.62280
X13.37500 Y69.39420
X13.37500 Y69.29260
X13.32420 Y69.21640
X13.32420 Y68.58140
X13.50200 Y68.17500
X13.83220 Y67.92100
X14.06080 Y67.84480
X14.08620 Y66.34620
X16.93100 Y63.50140
X16.95640 Y62.66320
X17.03260 Y62.58700
X17.18500 Y62.53620
X20.20760 Y62.53620
X20.36000 Y62.58700
X20.46160 Y62.73940
X20.46160 Y63.93320
X20.36000 Y64.08560
X20.20760 Y64.13640
X17.36280 Y64.13640
X14.74660 Y66.75260
X14.74660 Y67.84480
X14.87360 Y67.87020
X15.00060 Y67.97180
X15.10220 Y67.99720
X15.12760 Y68.04800
X15.17840 Y68.04800
X15.35620 Y68.25120
X15.48320 Y68.58140
X15.48320 Y69.21640
X15.30540 Y69.62280
X15.17840 Y69.74980
X15.12760 Y69.74980
X15.10220 Y69.80060
X15.00060 Y69.82600
X14.87360 Y69.92760
X14.61960 Y69.97840
X14.18780 Y69.97840
X13.93380 Y69.92760
X13.88300 Y69.87680
G04 P0 ( dwell for no time -- G64 should not smooth over this point )
G00 Z5.00000 ( retract )

G00 X11.34300 Y69.87680 ( rapid move to begin. )
F300.00000
G01 Z-0.05000
G04 P0 ( dwell for no time -- G64 should not smooth over this point )
F600.00000
X11.34300 Y69.87680
X11.08900 Y69.74980
X10.96200 Y69.62280
X10.78420 Y69.21640
X10.78420 Y68.58140
X10.83500 Y68.50520
X10.83500 Y68.40360
X10.96200 Y68.17500
X11.08900 Y68.04800
X11.26680 Y67.97180
X11.29220 Y63.80620
X11.34300 Y63.70460
X13.24800 Y61.79960
X13.29880 Y61.79960
X14.97520 Y60.09780
X9.84440 Y54.99240
X9.03160 Y54.99240
X8.82840 Y54.89080
X8.77760 Y54.73840
X8.77760 Y53.84940
X8.87920 Y53.64620
X9.03160 Y53.59540
X10.12380 Y53.59540
X10.27620 Y53.64620
X10.37780 Y53.84940
X10.37780 Y54.45900
X15.63560 Y59.69140
X23.83980 Y59.71680
X23.94140 Y59.76760
X27.29420 Y63.14580
X34.07600 Y63.14580
X34.15220 Y62.86640
X34.22840 Y62.81560
X34.22840 Y62.76480
X34.38080 Y62.68860
X35.21900 Y62.66320
X35.24440 Y56.59260
X35.32060 Y56.51640
X35.32060 Y56.46560
X35.47300 Y56.36400
X36.66680 Y56.36400
X36.84460 Y56.49100
X36.92080 Y56.71960
X36.89540 Y62.66320
X37.68280 Y62.66320
X37.91140 Y62.76480
X37.91140 Y62.81560
X38.01300 Y62.91720
X38.06380 Y63.12040
X38.06380 Y64.36500
X38.01300 Y64.56820
X37.91140 Y64.66980
X37.91140 Y64.72060
X37.68280 Y64.82220
X34.45700 Y64.82220
X34.22840 Y64.72060
X34.22840 Y64.66980
X34.12680 Y64.56820
X34.07600 Y64.31420
X26.83700 Y64.31420
X26.63380 Y64.23800
X23.28100 Y60.85980
X15.96580 Y60.85980
X13.67980 Y63.17120
X13.62900 Y63.17120
X12.43520 Y64.36500
X12.43520 Y67.94640
X12.63840 Y68.04800
X12.76540 Y68.17500
X12.89240 Y68.40360
X12.89240 Y68.50520
X12.94320 Y68.58140
X12.94320 Y69.21640
X12.76540 Y69.62280
X12.63840 Y69.74980
X12.58760 Y69.74980
X12.56220 Y69.80060
X12.46060 Y69.82600
X12.33360 Y69.92760
X12.07960 Y69.97840
X11.64780 Y69.97840
X11.39380 Y69.92760
X11.34300 Y69.87680
G04 P0 ( dwell for no time -- G64 should not smooth over this point )
G00 Z5.00000 ( retract )

G00 X5.83120 Y71.47700 ( rapid move to begin. )
F300.00000
G01 Z-0.05000
G04 P0 ( dwell for no time -- G64 should not smooth over this point )
F600.00000
X5.83120 Y71.47700
X4.40880 Y70.08000
X4.38340 Y70.00380
X4.38340 Y31.52280
X4.43420 Y31.39580
X4.78980 Y31.04020
X4.86600 Y31.01480
X5.37400 Y31.01480
X5.62800 Y31.29420
X5.67880 Y31.29420
X5.83120 Y31.44660
X5.80580 Y31.75140
X5.65340 Y31.87840
X5.60260 Y31.87840
X5.47560 Y32.00540
X5.42480 Y32.13240
X5.34860 Y32.18320
X5.22160 Y32.46260
X5.14540 Y32.81820
X5.17080 Y33.07220
X5.34860 Y33.52940
X5.62800 Y33.83420
X5.67880 Y33.83420
X5.83120 Y33.98660
X5.80580 Y34.29140
X5.47560 Y34.54540
X5.47560 Y34.59620
X5.34860 Y34.72320
X5.27240 Y34.87560
X5.19620 Y35.10420
X5.14540 Y35.48520
X5.24700 Y35.86620
X5.34860 Y36.06940
X5.78040 Y36.50120
X5.98360 Y36.60280
X6.39000 Y36.70440
X6.84720 Y36.62820
X7.07580 Y36.52660
X7.12660 Y36.45040
X7.27900 Y36.37420
X7.53300 Y36.09480
X7.76160 Y36.09480
X7.86320 Y36.14560
X7.86320 Y41.60660
X7.88860 Y41.75900
X7.93940 Y41.78440
X8.01560 Y41.98760
X8.26960 Y42.24160
X8.32040 Y42.24160
X8.34580 Y42.57180
X7.78700 Y43.10520
X7.86320 Y43.28300
X7.86320 Y43.91800
X7.81240 Y43.99420
X7.81240 Y44.09580
X8.09180 Y44.37520
X8.16800 Y44.37520
X8.19340 Y44.45140
X8.47280 Y44.73080
X8.80300 Y44.90860
X8.87920 Y45.01020
X8.87920 Y51.23320
X8.77760 Y51.38560
X8.59980 Y51.51260
X8.59980 Y51.56340
X8.49820 Y51.66500
X8.47280 Y51.81740
X8.42200 Y51.84280
X8.42200 Y52.68100
X8.49820 Y52.90960
X8.67600 Y53.08740
X8.67600 Y53.44300
X8.49820 Y53.64620
X8.42200 Y53.92560
X8.44740 Y54.76380
X8.54900 Y54.99240
X8.82840 Y55.27180
X8.95540 Y55.27180
X9.10780 Y55.34800
X9.86980 Y55.37340
X14.41640 Y59.94540
X14.41640 Y60.27560
X11.11440 Y63.55220
X11.01280 Y63.73000
X10.91120 Y64.03480
X10.91120 Y67.81940
X10.88580 Y67.89560
X10.83500 Y67.89560
X10.78420 Y67.99720
X10.32700 Y68.40360
X10.40320 Y68.58140
X10.40320 Y69.21640
X10.35240 Y69.29260
X10.35240 Y69.39420
X10.63180 Y69.67360
X10.73340 Y69.69900
X10.73340 Y69.74980
X11.13980 Y70.13080
X11.26680 Y70.15620
X11.34300 Y70.23240
X11.69860 Y70.33400
X12.02880 Y70.33400
X12.33360 Y70.25780
X12.40980 Y70.18160
X12.61300 Y70.13080
X12.66380 Y70.05460
X12.71460 Y70.05460
X12.96860 Y69.77520
X13.29880 Y69.77520
X13.47660 Y69.97840
X13.52740 Y69.97840
X13.67980 Y70.13080
X13.80680 Y70.15620
X13.88300 Y70.23240
X14.23860 Y70.33400
X14.56880 Y70.33400
X14.87360 Y70.25780
X14.94980 Y70.18160
X15.15300 Y70.13080
X15.20380 Y70.05460
X15.25460 Y70.05460
X15.50860 Y69.77520
X15.83880 Y69.77520
X16.11820 Y70.05460
X16.09280 Y70.38480
X14.87360 Y71.57860
X5.93280 Y71.57860
X5.83120 Y71.47700
G04 P0 ( dwell for no time -- G64 should not smooth over this point )
G00 Z5.00000 ( retract )

G00 X5.39940 Y72.51840 ( rapid move to begin. )
F300.00000
G01 Z-0.05000
G04 P0 ( dwell for no time -- G64 should not smooth over this point )
F600.00000
X5.39940 Y72.51840
X3.72300 Y70.84200
X3.67220 Y70.84200
X3.41820 Y70.58800
X3.34200 Y70.43560
X3.34200 Y31.09100
X3.41820 Y30.93860
X4.33260 Y30.02420
X4.43420 Y29.97340
X5.55180 Y29.97340
X5.57720 Y29.84640
X5.70420 Y29.71940
X5.70420 Y29.66860
X6.00900 Y29.44000
X6.21220 Y29.38920
X6.69480 Y29.38920
X6.84720 Y29.41460
X6.97420 Y29.51620
X7.07580 Y29.54160
X7.27900 Y29.77020
X7.38060 Y29.99880
X7.38060 Y30.63380
X7.27900 Y30.86240
X7.07580 Y31.09100
X6.92340 Y31.14180
X6.84720 Y31.21800
X6.69480 Y31.24340
X6.05980 Y31.21800
X5.98360 Y31.14180
X5.83120 Y31.09100
X5.70420 Y30.96400
X5.70420 Y30.91320
X5.57720 Y30.78620
X5.55180 Y30.65920
X4.78980 Y30.65920
X4.02780 Y31.42120
X4.02780 Y70.10540
X5.88200 Y71.93420
X14.92440 Y71.93420
X16.60080 Y70.25780
X16.60080 Y69.95300
X16.37220 Y69.87680
X16.34680 Y69.82600
X16.24520 Y69.80060
X16.09280 Y69.67360
X15.99120 Y69.54660
X15.86420 Y69.21640
X15.86420 Y68.58140
X15.99120 Y68.25120
X16.16900 Y68.04800
X16.21980 Y68.04800
X16.24520 Y67.99720
X16.34680 Y67.97180
X16.47380 Y67.87020
X16.72780 Y67.81940
X17.31200 Y67.84480
X17.64220 Y67.99720
X17.84540 Y68.17500
X17.97240 Y68.40360
X17.97240 Y68.50520
X18.02320 Y68.58140
X18.02320 Y69.21640
X17.84540 Y69.62280
X17.51520 Y69.87680
X17.28660 Y69.95300
X17.28660 Y70.58800
X17.21040 Y70.74040
X15.38160 Y72.56920
X15.28000 Y72.62000
X5.52640 Y72.62000
X5.39940 Y72.51840
G04 P0 ( dwell for no time -- G64 should not smooth over this point )
G00 Z5.00000 ( retract )

G00 X4.56120 Y74.06780 ( rapid move to begin. )
F300.00000
G01 Z-0.05000
G04 P0 ( dwell for no time -- G64 should not smooth over this point )
F600.00000
X4.56120 Y74.06780
X3.90080 Y73.91540
X3.26580 Y73.61060
X3.16420 Y73.50900
X2.98640 Y73.43280
X2.93560 Y73.35660
X2.85940 Y73.35660
X2.63080 Y73.12800
X2.50380 Y73.07720
X2.30060 Y72.87400
X2.30060 Y72.82320
X1.94500 Y72.49300
X1.94500 Y72.44220
X1.79260 Y72.28980
X1.64020 Y71.98500
X1.58940 Y71.95960
X1.51320 Y71.73100
X1.46240 Y71.70560
X1.28460 Y71.35000
X1.25920 Y71.17220
X1.13220 Y70.89280
X0.97980 Y69.85140
X0.97980 Y17.32420
X1.08140 Y16.53680
X1.25920 Y15.92720
X1.31000 Y15.87640
X1.31000 Y15.80020
X1.38620 Y15.69860
X1.46240 Y15.47000
X1.51320 Y15.44460
X1.58940 Y15.29220
X1.58940 Y15.21600
X1.74180 Y15.03820
X1.79260 Y14.88580
X1.94500 Y14.73340
X1.94500 Y14.68260
X2.30060 Y14.35240
X2.30060 Y14.30160
X2.55460 Y14.04760
X2.63080 Y14.04760
X2.85940 Y13.81900
X2.93560 Y13.81900
X3.26580 Y13.56500
X4.07860 Y13.20940
X4.63740 Y13.10780
X4.68820 Y13.05700
X5.09460 Y13.00620
X22.82380 Y13.00620
X23.53500 Y12.90460
X23.86520 Y12.80300
X24.09380 Y12.77760
X24.29700 Y12.67600
X24.44940 Y12.65060
X24.50020 Y12.59980
X24.57640 Y12.59980
X24.80500 Y12.47280
X24.88120 Y12.47280
X25.00820 Y12.37120
X25.21140 Y12.29500
X25.23680 Y12.24420
X25.33840 Y12.21880
X25.36380 Y12.16800
X25.46540 Y12.14260
X25.49080 Y12.09180
X25.59240 Y12.06640
X25.61780 Y12.01560
X25.71940 Y11.99020
X25.79560 Y11.88860
X25.94800 Y11.81240
X26.02420 Y11.71080
X26.07500 Y11.71080
X26.53220 Y11.25360
X26.53220 Y11.20280
X26.78620 Y10.94880
X26.78620 Y10.89800
X26.96400 Y10.72020
X26.96400 Y10.66940
X27.21800 Y10.33920
X27.47200 Y9.83120
X27.54820 Y9.57720
X27.62440 Y9.47560
X27.72600 Y9.09460
X27.77680 Y9.04380
X27.77680 Y8.91680
X27.87840 Y8.68820
X27.95460 Y8.25640
X27.98000 Y5.31000
X28.05620 Y4.64960
X28.23400 Y3.98920
X28.31020 Y3.88760
X28.41180 Y3.55740
X28.51340 Y3.43040
X28.58960 Y3.22720
X28.64040 Y3.20180
X28.79280 Y2.89700
X29.04680 Y2.61760
X29.04680 Y2.56680
X29.55480 Y2.05880
X29.63100 Y2.05880
X29.88500 Y1.80480
X30.01200 Y1.75400
X30.18980 Y1.60160
X30.26600 Y1.60160
X30.39300 Y1.50000
X30.62160 Y1.42380
X30.72320 Y1.34760
X30.79940 Y1.34760
X30.90100 Y1.27140
X31.00260 Y1.27140
X31.38360 Y1.11900
X31.63760 Y1.06820
X32.27260 Y0.99200
X65.87680 Y0.99200
X66.76580 Y1.11900
X66.89280 Y1.19520
X67.29920 Y1.29680
X67.93420 Y1.60160
X68.26440 Y1.85560
X68.36600 Y1.88100
X68.51840 Y2.05880
X68.59460 Y2.05880
X69.10260 Y2.56680
X69.10260 Y2.64300
X69.25500 Y2.79540
X69.25500 Y2.84620
X69.40740 Y2.97320
X69.43280 Y3.07480
X69.48360 Y3.10020
X69.63600 Y3.43040
X69.73760 Y3.55740
X69.73760 Y3.63360
X69.81380 Y3.73520
X69.81380 Y3.81140
X69.91540 Y4.01460
X69.96620 Y4.26860
X70.01700 Y4.31940
X70.16940 Y5.28460
X70.16940 Y69.72440
X70.09320 Y70.53720
X70.04240 Y70.79120
X69.94080 Y70.96900
X69.86460 Y71.32460
X69.40740 Y72.21360
X69.25500 Y72.34060
X69.25500 Y72.39140
X69.17880 Y72.44220
X69.10260 Y72.59460
X68.84860 Y72.82320
X68.84860 Y72.87400
X68.59460 Y73.12800
X68.51840 Y73.12800
X68.26440 Y73.35660
X67.95960 Y73.50900
X67.88340 Y73.61060
X67.73100 Y73.66140
X67.70560 Y73.71220
X67.07060 Y73.96620
X66.76580 Y74.01700
X66.51180 Y74.11860
X66.15620 Y74.16940
X4.99300 Y74.16940
X4.63740 Y74.11860
X4.56120 Y74.06780
G04 P0 ( dwell for no time -- G64 should not smooth over this point )
G00 Z5.00000 ( retract )

G00 X17.00720 Y57.93880 ( rapid move to begin. )
F300.00000
G01 Z-0.05000
G04 P0 ( dwell for no time -- G64 should not smooth over this point )
F600.00000
X17.00720 Y57.93880
X16.93100 Y57.83720
X16.93100 Y56.64340
X17.03260 Y56.49100
X17.18500 Y56.44020
X20.20760 Y56.44020
X20.36000 Y56.49100
X20.43620 Y56.56720
X20.46160 Y56.89740
X25.74480 Y56.89740
X27.21800 Y55.39880
X27.21800 Y42.77500
X25.87180 Y41.42880
X19.39480 Y41.42880
X19.29320 Y41.37800
X16.29600 Y38.38080
X16.21980 Y38.22840
X16.24520 Y29.36380
X18.12480 Y27.48420
X18.22640 Y27.43340
X20.79180 Y27.43340
X20.81720 Y27.30640
X20.94420 Y27.17940
X20.94420 Y27.12860
X21.24900 Y26.90000
X21.45220 Y26.84920
X21.93480 Y26.84920
X22.08720 Y26.87460
X22.21420 Y26.97620
X22.31580 Y27.00160
X22.51900 Y27.23020
X22.62060 Y27.45880
X22.62060 Y28.09380
X22.56980 Y28.24620
X22.31580 Y28.55100
X22.16340 Y28.60180
X22.08720 Y28.67800
X21.93480 Y28.70340
X21.29980 Y28.67800
X21.22360 Y28.60180
X21.07120 Y28.55100
X20.94420 Y28.42400
X20.94420 Y28.37320
X20.81720 Y28.24620
X20.79180 Y28.11920
X18.58200 Y28.11920
X16.90560 Y29.77020
X16.90560 Y37.89820
X19.75040 Y40.74300
X26.22740 Y40.74300
X26.32900 Y40.79380
X27.87840 Y42.36860
X27.90380 Y55.72900
X27.82760 Y55.88140
X26.43060 Y57.25300
X26.43060 Y57.30380
X26.20200 Y57.53240
X26.10040 Y57.58320
X20.46160 Y57.58320
X20.43620 Y57.91340
X20.36000 Y57.98960
X20.20760 Y58.04040
X17.18500 Y58.04040
X17.03260 Y57.98960
X17.00720 Y57.93880
G04 P0 ( dwell for no time -- G64 should not smooth over this point )
G00 Z5.00000 ( retract )

G00 X8.85380 Y52.88420 ( rapid move to begin. )
F300.00000
G01 Z-0.05000
G04 P0 ( dwell for no time -- G64 should not smooth over this point )
F600.00000
X8.85380 Y52.88420
X8.77760 Y52.73180
X8.80300 Y51.74120
X8.87920 Y51.63960
X9.03160 Y51.58880
X9.23480 Y51.58880
X9.23480 Y44.68000
X8.85380 Y44.62920
X8.72680 Y44.52760
X8.62520 Y44.50220
X8.59980 Y44.45140
X8.54900 Y44.45140
X8.37120 Y44.24820
X8.24420 Y43.91800
X8.24420 Y43.28300
X8.37120 Y42.95280
X8.54900 Y42.74960
X8.59980 Y42.74960
X8.62520 Y42.69880
X8.72680 Y42.67340
X8.85380 Y42.57180
X8.98080 Y42.54640
X8.29500 Y41.88600
X8.21880 Y41.73360
X8.21880 Y23.77580
X7.48220 Y23.03920
X7.35520 Y23.03920
X7.32980 Y23.16620
X7.20280 Y23.29320
X7.20280 Y23.34400
X7.07580 Y23.47100
X6.92340 Y23.52180
X6.84720 Y23.59800
X6.21220 Y23.62340
X6.05980 Y23.59800
X5.78040 Y23.42020
X5.57720 Y23.16620
X5.52640 Y23.01380
X5.52640 Y22.37880
X5.57720 Y22.22640
X5.83120 Y21.92160
X5.98360 Y21.87080
X6.05980 Y21.79460
X6.21220 Y21.76920
X6.84720 Y21.79460
X6.97420 Y21.89620
X7.07580 Y21.92160
X7.20280 Y22.04860
X7.20280 Y22.09940
X7.32980 Y22.22640
X7.35520 Y22.35340
X7.83780 Y22.35340
X7.93940 Y22.40420
X8.82840 Y23.29320
X8.90460 Y23.44560
X8.90460 Y41.40340
X9.59040 Y42.06380
X9.66660 Y42.21620
X9.66660 Y42.54640
X9.79360 Y42.57180
X9.92060 Y42.67340
X10.02220 Y42.69880
X10.27620 Y42.95280
X10.40320 Y43.28300
X10.40320 Y43.91800
X10.22540 Y44.32440
X10.09840 Y44.45140
X9.92060 Y44.52760
X9.92060 Y51.58880
X10.12380 Y51.58880
X10.27620 Y51.63960
X10.35240 Y51.74120
X10.37780 Y52.73180
X10.32700 Y52.88420
X10.12380 Y52.98580
X9.03160 Y52.98580
X8.87920 Y52.93500
X8.85380 Y52.88420
G04 P0 ( dwell for no time -- G64 should not smooth over this point )
G00 Z5.00000 ( retract )

G00 X21.22360 Y23.52180 ( rapid move to begin. )
F300.00000
G01 Z-0.05000
G04 P0 ( dwell for no time -- G64 should not smooth over this point )
F600.00000
X21.22360 Y23.52180
X21.07120 Y23.47100
X20.81720 Y23.16620
X20.76640 Y23.01380
X20.76640 Y22.37880
X20.81720 Y22.22640
X20.94420 Y22.09940
X20.94420 Y22.04860
X21.07120 Y21.92160
X21.22360 Y21.87080
X21.29980 Y21.79460
X21.45220 Y21.76920
X22.08720 Y21.79460
X22.21420 Y21.89620
X22.31580 Y21.92160
X22.44280 Y22.04860
X22.44280 Y22.09940
X22.56980 Y22.22640
X22.59520 Y22.35340
X26.27820 Y22.35340
X26.27820 Y22.15020
X26.32900 Y21.99780
X26.53220 Y21.89620
X27.62440 Y21.89620
X27.80220 Y21.97240
X27.87840 Y22.15020
X27.87840 Y23.03920
X27.80220 Y23.21700
X27.62440 Y23.29320
X26.53220 Y23.29320
X26.32900 Y23.19160
X26.30360 Y23.03920
X22.59520 Y23.03920
X22.56980 Y23.16620
X22.44280 Y23.29320
X22.44280 Y23.34400
X22.31580 Y23.47100
X22.16340 Y23.52180
X22.08720 Y23.59800
X21.45220 Y23.62340
X21.29980 Y23.59800
X21.22360 Y23.52180
G04 P0 ( dwell for no time -- G64 should not smooth over this point )
G00 Z5.00000 ( retract )

G00 X21.22360 Y18.44180 ( rapid move to begin. )
F300.00000
G01 Z-0.05000
G04 P0 ( dwell for no time -- G64 should not smooth over this point )
F600.00000
X21.22360 Y18.44180
X21.07120 Y18.39100
X20.94420 Y18.26400
X20.94420 Y18.21320
X20.81720 Y18.08620
X20.76640 Y17.93380
X20.76640 Y17.29880
X20.81720 Y17.14640
X21.07120 Y16.84160
X21.22360 Y16.79080
X21.29980 Y16.71460
X21.93480 Y16.68920
X22.08720 Y16.71460
X22.21420 Y16.81620
X22.31580 Y16.84160
X22.44280 Y16.96860
X22.44280 Y17.01940
X25.26220 Y17.01940
X27.26880 Y15.01280
X27.26880 Y13.59040
X27.29420 Y13.46340
X27.37040 Y13.38720
X27.49740 Y13.33640
X28.64040 Y13.33640
X28.84360 Y13.46340
X28.86900 Y16.61300
X28.84360 Y16.74000
X28.76740 Y16.81620
X28.64040 Y16.86700
X27.49740 Y16.86700
X27.37040 Y16.81620
X27.29420 Y16.71460
X25.92260 Y18.11160
X25.71940 Y18.18780
X22.46820 Y18.18780
X22.31580 Y18.39100
X22.16340 Y18.44180
X22.08720 Y18.51800
X21.45220 Y18.54340
X21.29980 Y18.51800
X21.22360 Y18.44180
G04 P0 ( dwell for no time -- G64 should not smooth over this point )
G00 Z5.00000 ( retract )

G00 X60.84760 Y45.18800 ( rapid move to begin. )
F300.00000
G01 Z-0.05000
G04 P0 ( dwell for no time -- G64 should not smooth over this point )
F600.00000
X60.84760 Y45.18800
X60.77140 Y45.03560
X60.79680 Y44.04500
X60.87300 Y43.94340
X61.02540 Y43.89260
X61.22860 Y43.89260
X61.22860 Y35.68840
X59.37440 Y35.68840
X59.34900 Y35.84080
X59.22200 Y36.06940
X58.89180 Y36.32340
X58.53620 Y36.42500
X58.10440 Y36.42500
X57.74880 Y36.32340
X57.72340 Y36.27260
X57.54560 Y36.19640
X57.36780 Y35.99320
X57.24080 Y35.66300
X57.24080 Y35.02800
X57.36780 Y34.69780
X57.54560 Y34.49460
X57.59640 Y34.49460
X57.62180 Y34.44380
X57.72340 Y34.41840
X57.85040 Y34.31680
X58.10440 Y34.26600
X58.53620 Y34.26600
X58.89180 Y34.36760
X59.22200 Y34.62160
X59.34900 Y34.85020
X59.37440 Y35.00260
X61.22860 Y35.00260
X61.22860 Y32.28480
X61.02540 Y32.28480
X60.87300 Y32.23400
X60.79680 Y32.13240
X60.77140 Y31.14180
X60.84760 Y30.96400
X61.02540 Y30.88780
X62.11760 Y30.88780
X62.27000 Y30.93860
X62.37160 Y31.14180
X62.37160 Y32.03080
X62.27000 Y32.23400
X62.11760 Y32.28480
X61.91440 Y32.28480
X61.91440 Y35.00260
X63.76860 Y35.00260
X63.79400 Y34.85020
X63.92100 Y34.62160
X64.25120 Y34.36760
X64.60680 Y34.26600
X65.03860 Y34.26600
X65.39420 Y34.36760
X65.41960 Y34.41840
X65.59740 Y34.49460
X65.77520 Y34.69780
X65.90220 Y35.02800
X65.90220 Y35.66300
X65.77520 Y35.99320
X65.59740 Y36.19640
X65.54660 Y36.19640
X65.52120 Y36.24720
X65.41960 Y36.27260
X65.29260 Y36.37420
X65.03860 Y36.42500
X64.60680 Y36.42500
X64.25120 Y36.32340
X63.92100 Y36.06940
X63.79400 Y35.84080
X63.76860 Y35.68840
X61.91440 Y35.68840
X61.91440 Y43.89260
X62.11760 Y43.89260
X62.27000 Y43.94340
X62.34620 Y44.04500
X62.37160 Y45.03560
X62.29540 Y45.21340
X62.11760 Y45.28960
X61.02540 Y45.28960
X60.87300 Y45.23880
X60.84760 Y45.18800
G04 P0 ( dwell for no time -- G64 should not smooth over this point )
G00 Z5.00000 ( retract )

G00 X60.84760 Y60.19940 ( rapid move to begin. )
F300.00000
G01 Z-0.05000
G04 P0 ( dwell for no time -- G64 should not smooth over this point )
F600.00000
X60.84760 Y60.19940
X60.77140 Y60.04700
X60.79680 Y59.05640
X60.87300 Y58.95480
X61.02540 Y58.90400
X61.22860 Y58.90400
X61.22860 Y50.67440
X59.37440 Y50.67440
X59.34900 Y50.82680
X59.22200 Y51.05540
X58.89180 Y51.30940
X58.53620 Y51.41100
X58.10440 Y51.41100
X57.74880 Y51.30940
X57.72340 Y51.25860
X57.54560 Y51.18240
X57.36780 Y50.97920
X57.24080 Y50.64900
X57.24080 Y50.01400
X57.36780 Y49.68380
X57.54560 Y49.48060
X57.59640 Y49.48060
X57.62180 Y49.42980
X57.72340 Y49.40440
X57.85040 Y49.30280
X58.10440 Y49.25200
X58.53620 Y49.25200
X58.89180 Y49.35360
X59.22200 Y49.60760
X59.34900 Y49.83620
X59.37440 Y49.98860
X61.22860 Y49.98860
X61.22860 Y47.29620
X61.02540 Y47.29620
X60.87300 Y47.24540
X60.79680 Y47.14380
X60.77140 Y46.15320
X60.87300 Y45.95000
X61.02540 Y45.89920
X62.11760 Y45.89920
X62.27000 Y45.95000
X62.37160 Y46.15320
X62.37160 Y47.04220
X62.27000 Y47.24540
X62.11760 Y47.29620
X61.91440 Y47.29620
X61.91440 Y49.98860
X63.76860 Y49.98860
X63.79400 Y49.83620
X63.92100 Y49.60760
X64.25120 Y49.35360
X64.60680 Y49.25200
X65.03860 Y49.25200
X65.39420 Y49.35360
X65.41960 Y49.40440
X65.59740 Y49.48060
X65.77520 Y49.68380
X65.90220 Y50.01400
X65.90220 Y50.64900
X65.77520 Y50.97920
X65.59740 Y51.18240
X65.54660 Y51.18240
X65.52120 Y51.23320
X65.41960 Y51.25860
X65.29260 Y51.36020
X65.03860 Y51.41100
X64.60680 Y51.41100
X64.25120 Y51.30940
X63.92100 Y51.05540
X63.79400 Y50.82680
X63.76860 Y50.67440
X61.91440 Y50.67440
X61.91440 Y58.90400
X62.11760 Y58.90400
X62.27000 Y58.95480
X62.34620 Y59.05640
X62.37160 Y60.04700
X62.32080 Y60.19940
X62.11760 Y60.30100
X61.02540 Y60.30100
X60.87300 Y60.25020
X60.84760 Y60.19940
G04 P0 ( dwell for no time -- G64 should not smooth over this point )
G00 Z5.00000 ( retract )

G00 X64.30200 Y66.32080 ( rapid move to begin. )
F300.00000
G01 Z-0.05000
G04 P0 ( dwell for no time -- G64 should not smooth over this point )
F600.00000
X64.30200 Y66.32080
X64.12420 Y66.24460
X63.92100 Y66.06680
X63.79400 Y65.83820
X63.76860 Y65.68580
X59.37440 Y65.68580
X59.34900 Y65.83820
X59.22200 Y66.06680
X59.09500 Y66.19380
X59.04420 Y66.19380
X59.01880 Y66.24460
X58.91720 Y66.27000
X58.79020 Y66.37160
X58.53620 Y66.42240
X58.10440 Y66.42240
X57.85040 Y66.37160
X57.72340 Y66.27000
X57.62180 Y66.24460
X57.59640 Y66.19380
X57.54560 Y66.19380
X57.41860 Y66.06680
X57.29160 Y65.83820
X57.29160 Y65.73660
X57.24080 Y65.66040
X57.24080 Y65.02540
X57.29160 Y64.94920
X57.29160 Y64.84760
X54.80240 Y62.38380
X54.72620 Y62.23140
X54.72620 Y5.28460
X52.38940 Y2.92240
X34.25380 Y2.92240
X31.40900 Y5.79260
X31.40900 Y23.21700
X31.33280 Y23.36940
X30.03740 Y24.63940
X30.03740 Y24.69020
X29.83420 Y24.89340
X29.73260 Y24.94420
X27.87840 Y24.94420
X27.85300 Y25.14740
X27.77680 Y25.24900
X27.62440 Y25.29980
X27.42120 Y25.29980
X27.42120 Y32.38640
X27.67520 Y32.38640
X27.82760 Y32.43720
X27.82760 Y32.48800
X27.87840 Y32.51340
X27.90380 Y32.61500
X27.87840 Y33.60560
X27.82760 Y33.63100
X27.82760 Y33.68180
X27.67520 Y33.73260
X26.48140 Y33.73260
X26.32900 Y33.68180
X26.32900 Y33.63100
X26.27820 Y33.60560
X26.25280 Y33.19920
X22.59520 Y33.19920
X22.56980 Y33.32620
X22.44280 Y33.45320
X22.44280 Y33.50400
X22.13800 Y33.73260
X21.93480 Y33.78340
X21.45220 Y33.78340
X21.29980 Y33.75800
X21.22360 Y33.68180
X21.07120 Y33.63100
X20.81720 Y33.32620
X20.76640 Y33.17380
X20.76640 Y32.53880
X20.81720 Y32.38640
X21.07120 Y32.08160
X21.22360 Y32.03080
X21.29980 Y31.95460
X21.45220 Y31.92920
X21.93480 Y31.92920
X22.18880 Y32.00540
X22.44280 Y32.20860
X22.44280 Y32.25940
X22.56980 Y32.38640
X22.59520 Y32.51340
X26.30360 Y32.51340
X26.32900 Y32.43720
X26.48140 Y32.38640
X26.73540 Y32.38640
X26.73540 Y25.29980
X26.53220 Y25.29980
X26.37980 Y25.24900
X26.30360 Y25.14740
X26.27820 Y24.15680
X26.32900 Y24.00440
X26.53220 Y23.90280
X27.62440 Y23.90280
X27.82760 Y24.00440
X27.87840 Y24.25840
X29.37700 Y24.25840
X30.72320 Y22.88680
X30.72320 Y5.46240
X30.79940 Y5.31000
X33.36480 Y2.77000
X33.36480 Y2.71920
X33.79660 Y2.28740
X33.89820 Y2.23660
X52.74500 Y2.23660
X52.84660 Y2.28740
X53.22760 Y2.66840
X53.22760 Y2.71920
X55.38660 Y4.87820
X55.41200 Y61.90120
X57.85040 Y64.33960
X58.10440 Y64.26340
X58.53620 Y64.26340
X58.79020 Y64.31420
X58.91720 Y64.41580
X59.01880 Y64.44120
X59.04420 Y64.49200
X59.09500 Y64.49200
X59.22200 Y64.61900
X59.34900 Y64.84760
X59.37440 Y65.00000
X61.22860 Y65.00000
X61.22860 Y62.28220
X61.02540 Y62.28220
X60.87300 Y62.23140
X60.79680 Y62.12980
X60.79680 Y61.03760
X60.87300 Y60.93600
X61.02540 Y60.88520
X62.11760 Y60.88520
X62.27000 Y60.93600
X62.37160 Y61.13920
X62.34620 Y62.12980
X62.27000 Y62.23140
X62.11760 Y62.28220
X61.91440 Y62.28220
X61.91440 Y65.00000
X63.76860 Y65.00000
X63.87020 Y64.69520
X64.04800 Y64.49200
X64.09880 Y64.49200
X64.12420 Y64.44120
X64.22580 Y64.41580
X64.35280 Y64.31420
X64.60680 Y64.26340
X65.03860 Y64.26340
X65.29260 Y64.31420
X65.41960 Y64.41580
X65.52120 Y64.44120
X65.54660 Y64.49200
X65.59740 Y64.49200
X65.72440 Y64.61900
X65.85140 Y64.84760
X65.85140 Y64.94920
X65.90220 Y65.02540
X65.90220 Y65.66040
X65.77520 Y65.99060
X65.59740 Y66.19380
X65.54660 Y66.19380
X65.52120 Y66.24460
X65.41960 Y66.27000
X65.29260 Y66.37160
X65.03860 Y66.42240
X64.60680 Y66.42240
X64.35280 Y66.37160
X64.30200 Y66.32080

G04 P0 ( dwell for no time -- G64 should not smooth over this point )
G00 Z10.000 ( retract )

M5 ( Spindle off. )
M9 ( Coolant off. )
M2 ( Program end. )

