( pcb2gcode 1.3.2 )
( Software-independent Gcode )

( This file uses 4 drill bit sizes. )
( Bit sizes: [0.9mm] [1mm] [1.1mm] [1.3mm] )

G94       (Millimeters per minute feed rate.)
G21       (Units == Millimeters.)
G91.1     (Incremental arc distance mode.)
G90       (Absolute coordinates.)
S10000     (RPM spindle speed.)

G00 Z10.00000 (Retract)
T1
M5      (Spindle stop.)
(MSG, Change tool bit to drill size 0.90000 mm)
M6      (Tool change.)
M0      (Temporary machine stop.)
M3      (Spindle on clockwise.)

G81 R5.00000 Z-2.50000 F1000.00000 X21.57580 Y5.16580
X23.09980 Y6.94380
X21.57580 Y8.46780
X23.09980 Y9.99180
X21.57580 Y20.16580
X23.09980 Y21.94380
X21.57580 Y23.46780
X23.09980 Y24.99180
X21.57580 Y35.16580
X23.09980 Y36.94380
X21.57580 Y38.46780
X23.09980 Y39.99180
X21.57580 Y50.16580
X23.09980 Y51.94380
X21.57580 Y53.46780
X23.09980 Y54.99180
X21.57580 Y65.16580
X23.09980 Y66.94380
X21.57580 Y68.46780
X23.09980 Y69.99180
X49.45580 Y35.38080
X49.45580 Y32.84080
X49.45580 Y30.30080
X49.45580 Y27.76080
X49.45580 Y25.22080
X49.45580 Y22.68080
X49.45580 Y20.14080
X49.45580 Y17.60080
X64.69580 Y17.60080
X64.69580 Y20.14080
X64.69580 Y22.68080
X64.69580 Y25.22080
X64.69580 Y27.76080
X64.69580 Y30.30080
X64.69580 Y32.84080
X64.69580 Y35.38080

G00 Z10.00000 (Retract)
T2
M5      (Spindle stop.)
(MSG, Change tool bit to drill size 1.00000 mm)
M6      (Tool change.)
M0      (Temporary machine stop.)
M3      (Spindle on clockwise.)

G81 R5.00000 Z-2.50000 F1000.00000 X28.57580 Y19.57580
X36.17580 Y19.57580
X46.57580 Y43.57580
X49.11580 Y43.57580
X51.65580 Y43.57580
X54.19580 Y43.57580
X56.73580 Y43.57580
X59.27580 Y43.57580
X61.81580 Y43.57580
X64.35580 Y43.57580
X64.35580 Y68.87580
X61.81580 Y68.87580
X59.27580 Y68.87580
X56.73580 Y68.87580
X54.19580 Y68.87580
X51.65580 Y68.87580
X49.11580 Y68.87580
X46.57580 Y68.87580

G00 Z10.00000 (Retract)
T3
M5      (Spindle stop.)
(MSG, Change tool bit to drill size 1.10000 mm)
M6      (Tool change.)
M0      (Temporary machine stop.)
M3      (Spindle on clockwise.)

G81 R5.00000 Z-2.50000 F1000.00000 X6.32580 Y5.32580
X6.32580 Y9.82580
X12.82580 Y9.82580
X12.82580 Y5.32580
X12.82580 Y20.32580
X12.82580 Y24.82580
X6.32580 Y24.82580
X6.32580 Y20.32580
X6.32580 Y35.32580
X6.32580 Y39.82580
X12.82580 Y39.82580
X12.82580 Y35.32580
X12.82580 Y50.32580
X12.82580 Y54.82580
X6.32580 Y54.82580
X6.32580 Y50.32580
X6.32580 Y65.32580
X6.32580 Y69.82580
X12.82580 Y69.82580
X12.82580 Y65.32580

G00 Z10.00000 (Retract)
T4
M5      (Spindle stop.)
(MSG, Change tool bit to drill size 1.30000 mm)
M6      (Tool change.)
M0      (Temporary machine stop.)
M3      (Spindle on clockwise.)

G81 R5.00000 Z-2.50000 F1000.00000 X32.57580 Y48.07580
X37.57580 Y48.07580

G00 Z10.000 ( All done -- retract )

M5      (Spindle off.)
M9      (Coolant off.)
M2      (Program end.)

