( pcb2gcode 1.3.2 )
( Software-independent Gcode )

G94 ( Millimeters per minute feed rate. )
G21 ( Units == Millimeters. )

G90 ( Absolute coordinates. )
S10000 ( RPM spindle speed. )
G64 P0.01000 ( set maximum deviation from commanded toolpath )
F600.00000 ( Feedrate. )

F600.00000 ( Feedrate. )
M3 ( Spindle on clockwise. )
G04 P0 ( dwell for no time -- G64 should not smooth over this point )
G00 Z5.00000 ( retract )

G00 X6.84960 Y6.32600 ( rapid move to begin. )
F300.00000
G01 Z-0.05000
G04 P0 ( dwell for no time -- G64 should not smooth over this point )
F600.00000
X6.84960 Y6.32600
X7.02740 Y6.24980
X7.23060 Y6.07200
X7.40840 Y5.66560
X7.40840 Y5.03060
X7.23060 Y4.62420
X6.90040 Y4.37020
X6.54480 Y4.26860
X5.96060 Y4.29400
X5.55420 Y4.49720
X5.37640 Y4.70040
X5.24940 Y5.03060
X5.24940 Y5.66560
X5.42720 Y6.07200
X5.63040 Y6.24980
X5.96060 Y6.40220
X6.54480 Y6.42760
X6.79880 Y6.37680
X6.84960 Y6.32600
G04 P0 ( dwell for no time -- G64 should not smooth over this point )
G00 Z5.00000 ( retract )

G00 X6.84960 Y10.82180 ( rapid move to begin. )
F300.00000
G01 Z-0.05000
G04 P0 ( dwell for no time -- G64 should not smooth over this point )
F600.00000
X6.84960 Y10.82180
X7.02740 Y10.74560
X7.23060 Y10.56780
X7.40840 Y10.16140
X7.40840 Y9.52640
X7.23060 Y9.12000
X6.90040 Y8.86600
X6.54480 Y8.76440
X5.96060 Y8.78980
X5.55420 Y8.99300
X5.37640 Y9.19620
X5.24940 Y9.52640
X5.24940 Y10.16140
X5.42720 Y10.56780
X5.63040 Y10.74560
X5.96060 Y10.89800
X6.54480 Y10.92340
X6.79880 Y10.87260
X6.84960 Y10.82180
G04 P0 ( dwell for no time -- G64 should not smooth over this point )
G00 Z5.00000 ( retract )

G00 X13.35200 Y10.82180 ( rapid move to begin. )
F300.00000
G01 Z-0.05000
G04 P0 ( dwell for no time -- G64 should not smooth over this point )
F600.00000
X13.35200 Y10.82180
X13.52980 Y10.74560
X13.73300 Y10.56780
X13.91080 Y10.16140
X13.91080 Y9.52640
X13.73300 Y9.12000
X13.40280 Y8.86600
X13.04720 Y8.76440
X12.46300 Y8.78980
X12.05660 Y8.99300
X11.87880 Y9.19620
X11.75180 Y9.52640
X11.75180 Y10.16140
X11.92960 Y10.56780
X12.13280 Y10.74560
X12.46300 Y10.89800
X13.04720 Y10.92340
X13.30120 Y10.87260
X13.35200 Y10.82180
G04 P0 ( dwell for no time -- G64 should not smooth over this point )
G00 Z5.00000 ( retract )

G00 X13.35200 Y6.32600 ( rapid move to begin. )
F300.00000
G01 Z-0.05000
G04 P0 ( dwell for no time -- G64 should not smooth over this point )
F600.00000
X13.35200 Y6.32600
X13.52980 Y6.24980
X13.73300 Y6.07200
X13.91080 Y5.66560
X13.91080 Y5.03060
X13.73300 Y4.62420
X13.40280 Y4.37020
X13.04720 Y4.26860
X12.46300 Y4.29400
X12.05660 Y4.49720
X11.87880 Y4.70040
X11.75180 Y5.03060
X11.75180 Y5.66560
X11.92960 Y6.07200
X12.13280 Y6.24980
X12.46300 Y6.40220
X13.04720 Y6.42760
X13.30120 Y6.37680
X13.35200 Y6.32600
G04 P0 ( dwell for no time -- G64 should not smooth over this point )
G00 Z5.00000 ( retract )

G00 X22.39440 Y6.04660 ( rapid move to begin. )
F300.00000
G01 Z-0.05000
G04 P0 ( dwell for no time -- G64 should not smooth over this point )
F600.00000
X22.39440 Y6.04660
X22.52140 Y5.91960
X22.54680 Y5.81800
X22.54680 Y4.52260
X22.47060 Y4.34480
X22.24200 Y4.19240
X20.89580 Y4.19240
X20.74340 Y4.26860
X20.59100 Y4.49720
X20.59100 Y5.81800
X20.66720 Y5.99580
X20.89580 Y6.14820
X22.24200 Y6.14820
X22.39440 Y6.04660
G04 P0 ( dwell for no time -- G64 should not smooth over this point )
G00 Z5.00000 ( retract )

G00 X23.58820 Y7.82460 ( rapid move to begin. )
F300.00000
G01 Z-0.05000
G04 P0 ( dwell for no time -- G64 should not smooth over this point )
F600.00000
X23.58820 Y7.82460
X23.76600 Y7.74840
X23.94380 Y7.57060
X24.07080 Y7.26580
X24.07080 Y6.63080
X23.94380 Y6.32600
X23.63900 Y6.07200
X23.30880 Y5.97040
X22.72460 Y5.99580
X22.41980 Y6.14820
X22.24200 Y6.32600
X22.11500 Y6.63080
X22.11500 Y7.26580
X22.24200 Y7.57060
X22.41980 Y7.74840
X22.72460 Y7.90080
X23.30880 Y7.92620
X23.53740 Y7.87540
X23.58820 Y7.82460
G04 P0 ( dwell for no time -- G64 should not smooth over this point )
G00 Z5.00000 ( retract )

G00 X22.06420 Y9.34860 ( rapid move to begin. )
F300.00000
G01 Z-0.05000
G04 P0 ( dwell for no time -- G64 should not smooth over this point )
F600.00000
X22.06420 Y9.34860
X22.24200 Y9.27240
X22.41980 Y9.09460
X22.54680 Y8.78980
X22.54680 Y8.15480
X22.41980 Y7.85000
X22.11500 Y7.59600
X21.78480 Y7.49440
X21.20060 Y7.51980
X20.89580 Y7.67220
X20.71800 Y7.85000
X20.59100 Y8.15480
X20.59100 Y8.78980
X20.71800 Y9.09460
X20.89580 Y9.27240
X21.20060 Y9.42480
X21.78480 Y9.45020
X22.01340 Y9.39940
X22.06420 Y9.34860
G04 P0 ( dwell for no time -- G64 should not smooth over this point )
G00 Z5.00000 ( retract )

G00 X23.58820 Y10.87260 ( rapid move to begin. )
F300.00000
G01 Z-0.05000
G04 P0 ( dwell for no time -- G64 should not smooth over this point )
F600.00000
X23.58820 Y10.87260
X23.76600 Y10.79640
X23.94380 Y10.61860
X24.07080 Y10.31380
X24.07080 Y9.67880
X23.94380 Y9.37400
X23.63900 Y9.12000
X23.30880 Y9.01840
X22.72460 Y9.04380
X22.41980 Y9.19620
X22.24200 Y9.37400
X22.11500 Y9.67880
X22.11500 Y10.31380
X22.24200 Y10.61860
X22.41980 Y10.79640
X22.72460 Y10.94880
X23.30880 Y10.97420
X23.53740 Y10.92340
X23.58820 Y10.87260
G04 P0 ( dwell for no time -- G64 should not smooth over this point )
G00 Z5.00000 ( retract )

G00 X22.39440 Y21.05800 ( rapid move to begin. )
F300.00000
G01 Z-0.05000
G04 P0 ( dwell for no time -- G64 should not smooth over this point )
F600.00000
X22.39440 Y21.05800
X22.47060 Y21.00720
X22.54680 Y20.82940
X22.54680 Y19.53400
X22.47060 Y19.35620
X22.24200 Y19.20380
X20.89580 Y19.20380
X20.74340 Y19.28000
X20.59100 Y19.50860
X20.59100 Y20.82940
X20.66720 Y21.00720
X20.89580 Y21.15960
X22.24200 Y21.15960
X22.39440 Y21.05800
G04 P0 ( dwell for no time -- G64 should not smooth over this point )
G00 Z5.00000 ( retract )

G00 X23.58820 Y22.83600 ( rapid move to begin. )
F300.00000
G01 Z-0.05000
G04 P0 ( dwell for no time -- G64 should not smooth over this point )
F600.00000
X23.58820 Y22.83600
X23.76600 Y22.75980
X23.94380 Y22.58200
X24.07080 Y22.27720
X24.07080 Y21.64220
X23.94380 Y21.33740
X23.63900 Y21.08340
X23.30880 Y20.98180
X22.72460 Y21.00720
X22.41980 Y21.15960
X22.24200 Y21.33740
X22.11500 Y21.64220
X22.11500 Y22.27720
X22.24200 Y22.58200
X22.41980 Y22.75980
X22.72460 Y22.91220
X23.30880 Y22.93760
X23.53740 Y22.88680
X23.58820 Y22.83600
G04 P0 ( dwell for no time -- G64 should not smooth over this point )
G00 Z5.00000 ( retract )

G00 X22.06420 Y24.36000 ( rapid move to begin. )
F300.00000
G01 Z-0.05000
G04 P0 ( dwell for no time -- G64 should not smooth over this point )
F600.00000
X22.06420 Y24.36000
X22.24200 Y24.28380
X22.41980 Y24.10600
X22.54680 Y23.80120
X22.54680 Y23.16620
X22.41980 Y22.86140
X22.11500 Y22.60740
X21.78480 Y22.50580
X21.20060 Y22.53120
X20.89580 Y22.68360
X20.71800 Y22.86140
X20.59100 Y23.16620
X20.59100 Y23.80120
X20.71800 Y24.10600
X20.89580 Y24.28380
X21.20060 Y24.43620
X21.78480 Y24.46160
X22.01340 Y24.41080
X22.06420 Y24.36000
G04 P0 ( dwell for no time -- G64 should not smooth over this point )
G00 Z5.00000 ( retract )

G00 X23.58820 Y25.88400 ( rapid move to begin. )
F300.00000
G01 Z-0.05000
G04 P0 ( dwell for no time -- G64 should not smooth over this point )
F600.00000
X23.58820 Y25.88400
X23.76600 Y25.80780
X23.94380 Y25.63000
X24.07080 Y25.32520
X24.07080 Y24.69020
X23.94380 Y24.38540
X23.63900 Y24.13140
X23.30880 Y24.02980
X22.72460 Y24.05520
X22.41980 Y24.20760
X22.24200 Y24.38540
X22.11500 Y24.69020
X22.11500 Y25.32520
X22.24200 Y25.63000
X22.41980 Y25.80780
X22.72460 Y25.96020
X23.30880 Y25.98560
X23.53740 Y25.93480
X23.58820 Y25.88400
G04 P0 ( dwell for no time -- G64 should not smooth over this point )
G00 Z5.00000 ( retract )

G00 X29.65880 Y20.57540 ( rapid move to begin. )
F300.00000
G01 Z-0.05000
G04 P0 ( dwell for no time -- G64 should not smooth over this point )
F600.00000
X29.65880 Y20.57540
X29.65880 Y18.51800
X27.49980 Y18.51800
X27.49980 Y20.67700
X29.65880 Y20.67700
X29.65880 Y20.57540
G04 P0 ( dwell for no time -- G64 should not smooth over this point )
G00 Z5.00000 ( retract )

G00 X36.69460 Y20.57540 ( rapid move to begin. )
F300.00000
G01 Z-0.05000
G04 P0 ( dwell for no time -- G64 should not smooth over this point )
F600.00000
X36.69460 Y20.57540
X36.94860 Y20.44840
X37.07560 Y20.32140
X37.25340 Y19.91500
X37.25340 Y19.28000
X37.07560 Y18.87360
X36.74540 Y18.61960
X36.38980 Y18.51800
X35.80560 Y18.54340
X35.39920 Y18.74660
X35.22140 Y18.94980
X35.09440 Y19.28000
X35.09440 Y19.91500
X35.27220 Y20.32140
X35.47540 Y20.49920
X35.80560 Y20.65160
X36.38980 Y20.67700
X36.64380 Y20.62620
X36.69460 Y20.57540
G04 P0 ( dwell for no time -- G64 should not smooth over this point )
G00 Z5.00000 ( retract )

G00 X49.92800 Y20.98180 ( rapid move to begin. )
F300.00000
G01 Z-0.05000
G04 P0 ( dwell for no time -- G64 should not smooth over this point )
F600.00000
X49.92800 Y20.98180
X50.08040 Y20.93100
X50.20740 Y20.80400
X50.20740 Y20.75320
X50.33440 Y20.62620
X50.38520 Y20.47380
X50.38520 Y19.83880
X50.28360 Y19.61020
X50.08040 Y19.38160
X49.92800 Y19.33080
X49.85180 Y19.25460
X49.69940 Y19.22920
X49.06440 Y19.25460
X48.93740 Y19.35620
X48.83580 Y19.38160
X48.63260 Y19.61020
X48.53100 Y19.83880
X48.53100 Y20.47380
X48.63260 Y20.70240
X48.83580 Y20.93100
X48.98820 Y20.98180
X49.06440 Y21.05800
X49.69940 Y21.08340
X49.85180 Y21.05800
X49.92800 Y20.98180
G04 P0 ( dwell for no time -- G64 should not smooth over this point )
G00 Z5.00000 ( retract )

G00 X49.92800 Y18.44180 ( rapid move to begin. )
F300.00000
G01 Z-0.05000
G04 P0 ( dwell for no time -- G64 should not smooth over this point )
F600.00000
X49.92800 Y18.44180
X50.08040 Y18.39100
X50.20740 Y18.26400
X50.20740 Y18.21320
X50.33440 Y18.08620
X50.38520 Y17.93380
X50.38520 Y17.29880
X50.28360 Y17.07020
X50.08040 Y16.84160
X49.92800 Y16.79080
X49.85180 Y16.71460
X49.69940 Y16.68920
X49.06440 Y16.71460
X48.93740 Y16.81620
X48.83580 Y16.84160
X48.58180 Y17.14640
X48.53100 Y17.29880
X48.53100 Y17.93380
X48.63260 Y18.16240
X48.83580 Y18.39100
X48.98820 Y18.44180
X49.06440 Y18.51800
X49.69940 Y18.54340
X49.85180 Y18.51800
X49.92800 Y18.44180
G04 P0 ( dwell for no time -- G64 should not smooth over this point )
G00 Z5.00000 ( retract )

G00 X49.92800 Y23.52180 ( rapid move to begin. )
F300.00000
G01 Z-0.05000
G04 P0 ( dwell for no time -- G64 should not smooth over this point )
F600.00000
X49.92800 Y23.52180
X50.08040 Y23.47100
X50.20740 Y23.34400
X50.20740 Y23.29320
X50.33440 Y23.16620
X50.38520 Y23.01380
X50.38520 Y22.37880
X50.28360 Y22.15020
X50.08040 Y21.92160
X49.92800 Y21.87080
X49.85180 Y21.79460
X49.69940 Y21.76920
X49.06440 Y21.79460
X48.93740 Y21.89620
X48.83580 Y21.92160
X48.63260 Y22.15020
X48.53100 Y22.37880
X48.53100 Y23.01380
X48.63260 Y23.24240
X48.83580 Y23.47100
X48.98820 Y23.52180
X49.06440 Y23.59800
X49.69940 Y23.62340
X49.85180 Y23.59800
X49.92800 Y23.52180
G04 P0 ( dwell for no time -- G64 should not smooth over this point )
G00 Z5.00000 ( retract )

G00 X49.92800 Y26.06180 ( rapid move to begin. )
F300.00000
G01 Z-0.05000
G04 P0 ( dwell for no time -- G64 should not smooth over this point )
F600.00000
X49.92800 Y26.06180
X50.08040 Y26.01100
X50.20740 Y25.88400
X50.20740 Y25.83320
X50.33440 Y25.70620
X50.38520 Y25.55380
X50.38520 Y24.91880
X50.28360 Y24.69020
X50.08040 Y24.46160
X49.92800 Y24.41080
X49.85180 Y24.33460
X49.69940 Y24.30920
X49.06440 Y24.33460
X48.93740 Y24.43620
X48.83580 Y24.46160
X48.63260 Y24.69020
X48.53100 Y24.91880
X48.53100 Y25.55380
X48.63260 Y25.78240
X48.83580 Y26.01100
X48.98820 Y26.06180
X49.06440 Y26.13800
X49.69940 Y26.16340
X49.85180 Y26.13800
X49.92800 Y26.06180
G04 P0 ( dwell for no time -- G64 should not smooth over this point )
G00 Z5.00000 ( retract )

G00 X49.92800 Y28.60180 ( rapid move to begin. )
F300.00000
G01 Z-0.05000
G04 P0 ( dwell for no time -- G64 should not smooth over this point )
F600.00000
X49.92800 Y28.60180
X50.08040 Y28.55100
X50.20740 Y28.42400
X50.20740 Y28.37320
X50.33440 Y28.24620
X50.38520 Y28.09380
X50.38520 Y27.45880
X50.28360 Y27.23020
X50.08040 Y27.00160
X49.92800 Y26.95080
X49.85180 Y26.87460
X49.69940 Y26.84920
X49.06440 Y26.87460
X48.93740 Y26.97620
X48.83580 Y27.00160
X48.63260 Y27.23020
X48.53100 Y27.45880
X48.53100 Y28.09380
X48.63260 Y28.32240
X48.83580 Y28.55100
X48.98820 Y28.60180
X49.06440 Y28.67800
X49.69940 Y28.70340
X49.85180 Y28.67800
X49.92800 Y28.60180
G04 P0 ( dwell for no time -- G64 should not smooth over this point )
G00 Z5.00000 ( retract )

G00 X49.92800 Y31.14180 ( rapid move to begin. )
F300.00000
G01 Z-0.05000
G04 P0 ( dwell for no time -- G64 should not smooth over this point )
F600.00000
X49.92800 Y31.14180
X50.08040 Y31.09100
X50.20740 Y30.96400
X50.20740 Y30.91320
X50.33440 Y30.78620
X50.38520 Y30.63380
X50.38520 Y29.99880
X50.28360 Y29.77020
X50.08040 Y29.54160
X49.92800 Y29.49080
X49.85180 Y29.41460
X49.69940 Y29.38920
X49.06440 Y29.41460
X48.93740 Y29.51620
X48.83580 Y29.54160
X48.63260 Y29.77020
X48.53100 Y29.99880
X48.53100 Y30.63380
X48.63260 Y30.86240
X48.83580 Y31.09100
X48.98820 Y31.14180
X49.06440 Y31.21800
X49.69940 Y31.24340
X49.85180 Y31.21800
X49.92800 Y31.14180
G04 P0 ( dwell for no time -- G64 should not smooth over this point )
G00 Z5.00000 ( retract )

G00 X49.92800 Y33.68180 ( rapid move to begin. )
F300.00000
G01 Z-0.05000
G04 P0 ( dwell for no time -- G64 should not smooth over this point )
F600.00000
X49.92800 Y33.68180
X50.08040 Y33.63100
X50.20740 Y33.50400
X50.20740 Y33.45320
X50.33440 Y33.32620
X50.38520 Y33.17380
X50.38520 Y32.53880
X50.28360 Y32.31020
X50.08040 Y32.08160
X49.92800 Y32.03080
X49.85180 Y31.95460
X49.69940 Y31.92920
X49.06440 Y31.95460
X48.93740 Y32.05620
X48.83580 Y32.08160
X48.58180 Y32.38640
X48.53100 Y32.53880
X48.53100 Y33.17380
X48.63260 Y33.40240
X48.83580 Y33.63100
X48.98820 Y33.68180
X49.06440 Y33.75800
X49.69940 Y33.78340
X49.85180 Y33.75800
X49.92800 Y33.68180
G04 P0 ( dwell for no time -- G64 should not smooth over this point )
G00 Z5.00000 ( retract )

G00 X49.92800 Y36.22180 ( rapid move to begin. )
F300.00000
G01 Z-0.05000
G04 P0 ( dwell for no time -- G64 should not smooth over this point )
F600.00000
X49.92800 Y36.22180
X50.08040 Y36.17100
X50.20740 Y36.04400
X50.20740 Y35.99320
X50.33440 Y35.86620
X50.38520 Y35.71380
X50.38520 Y35.07880
X50.28360 Y34.85020
X50.08040 Y34.62160
X49.92800 Y34.57080
X49.85180 Y34.49460
X49.69940 Y34.46920
X49.06440 Y34.49460
X48.93740 Y34.59620
X48.83580 Y34.62160
X48.63260 Y34.85020
X48.53100 Y35.07880
X48.53100 Y35.71380
X48.63260 Y35.94240
X48.83580 Y36.17100
X48.98820 Y36.22180
X49.06440 Y36.29800
X49.69940 Y36.32340
X49.85180 Y36.29800
X49.92800 Y36.22180
G04 P0 ( dwell for no time -- G64 should not smooth over this point )
G00 Z5.00000 ( retract )

G00 X49.64860 Y44.57840 ( rapid move to begin. )
F300.00000
G01 Z-0.05000
G04 P0 ( dwell for no time -- G64 should not smooth over this point )
F600.00000
X49.64860 Y44.57840
X49.82640 Y44.50220
X50.02960 Y44.32440
X50.20740 Y43.91800
X50.20740 Y43.28300
X50.02960 Y42.87660
X49.69940 Y42.62260
X49.34380 Y42.52100
X48.75960 Y42.54640
X48.35320 Y42.74960
X48.17540 Y42.95280
X48.04840 Y43.28300
X48.04840 Y43.91800
X48.22620 Y44.32440
X48.42940 Y44.50220
X48.75960 Y44.65460
X49.34380 Y44.68000
X49.59780 Y44.62920
X49.64860 Y44.57840
G04 P0 ( dwell for no time -- G64 should not smooth over this point )
G00 Z5.00000 ( retract )

G00 X52.18860 Y44.57840 ( rapid move to begin. )
F300.00000
G01 Z-0.05000
G04 P0 ( dwell for no time -- G64 should not smooth over this point )
F600.00000
X52.18860 Y44.57840
X52.36640 Y44.50220
X52.56960 Y44.32440
X52.74740 Y43.91800
X52.74740 Y43.28300
X52.56960 Y42.87660
X52.23940 Y42.62260
X51.88380 Y42.52100
X51.29960 Y42.54640
X50.89320 Y42.74960
X50.71540 Y42.95280
X50.58840 Y43.28300
X50.58840 Y43.91800
X50.76620 Y44.32440
X50.96940 Y44.50220
X51.29960 Y44.65460
X51.88380 Y44.68000
X52.13780 Y44.62920
X52.18860 Y44.57840
G04 P0 ( dwell for no time -- G64 should not smooth over this point )
G00 Z5.00000 ( retract )

G00 X54.72860 Y44.57840 ( rapid move to begin. )
F300.00000
G01 Z-0.05000
G04 P0 ( dwell for no time -- G64 should not smooth over this point )
F600.00000
X54.72860 Y44.57840
X54.98260 Y44.45140
X55.10960 Y44.32440
X55.28740 Y43.91800
X55.28740 Y43.28300
X55.10960 Y42.87660
X54.77940 Y42.62260
X54.42380 Y42.52100
X53.83960 Y42.54640
X53.43320 Y42.74960
X53.25540 Y42.95280
X53.12840 Y43.28300
X53.12840 Y43.91800
X53.30620 Y44.32440
X53.50940 Y44.50220
X53.83960 Y44.65460
X54.42380 Y44.68000
X54.67780 Y44.62920
X54.72860 Y44.57840
G04 P0 ( dwell for no time -- G64 should not smooth over this point )
G00 Z5.00000 ( retract )

G00 X57.26860 Y44.57840 ( rapid move to begin. )
F300.00000
G01 Z-0.05000
G04 P0 ( dwell for no time -- G64 should not smooth over this point )
F600.00000
X57.26860 Y44.57840
X57.52260 Y44.45140
X57.64960 Y44.32440
X57.82740 Y43.91800
X57.82740 Y43.28300
X57.64960 Y42.87660
X57.31940 Y42.62260
X56.96380 Y42.52100
X56.37960 Y42.54640
X55.97320 Y42.74960
X55.79540 Y42.95280
X55.66840 Y43.28300
X55.66840 Y43.91800
X55.84620 Y44.32440
X56.04940 Y44.50220
X56.37960 Y44.65460
X56.96380 Y44.68000
X57.21780 Y44.62920
X57.26860 Y44.57840
G04 P0 ( dwell for no time -- G64 should not smooth over this point )
G00 Z5.00000 ( retract )

G00 X59.80860 Y44.57840 ( rapid move to begin. )
F300.00000
G01 Z-0.05000
G04 P0 ( dwell for no time -- G64 should not smooth over this point )
F600.00000
X59.80860 Y44.57840
X59.98640 Y44.50220
X60.18960 Y44.32440
X60.36740 Y43.91800
X60.36740 Y43.28300
X60.18960 Y42.87660
X59.85940 Y42.62260
X59.50380 Y42.52100
X58.91960 Y42.54640
X58.51320 Y42.74960
X58.33540 Y42.95280
X58.20840 Y43.28300
X58.20840 Y43.91800
X58.38620 Y44.32440
X58.58940 Y44.50220
X58.91960 Y44.65460
X59.50380 Y44.68000
X59.75780 Y44.62920
X59.80860 Y44.57840
G04 P0 ( dwell for no time -- G64 should not smooth over this point )
G00 Z5.00000 ( retract )

G00 X62.34860 Y44.57840 ( rapid move to begin. )
F300.00000
G01 Z-0.05000
G04 P0 ( dwell for no time -- G64 should not smooth over this point )
F600.00000
X62.34860 Y44.57840
X62.52640 Y44.50220
X62.72960 Y44.32440
X62.90740 Y43.91800
X62.90740 Y43.28300
X62.72960 Y42.87660
X62.39940 Y42.62260
X62.04380 Y42.52100
X61.45960 Y42.54640
X61.05320 Y42.74960
X60.87540 Y42.95280
X60.74840 Y43.28300
X60.74840 Y43.91800
X60.92620 Y44.32440
X61.12940 Y44.50220
X61.45960 Y44.65460
X62.04380 Y44.68000
X62.29780 Y44.62920
X62.34860 Y44.57840
G04 P0 ( dwell for no time -- G64 should not smooth over this point )
G00 Z5.00000 ( retract )

G00 X64.88860 Y44.57840 ( rapid move to begin. )
F300.00000
G01 Z-0.05000
G04 P0 ( dwell for no time -- G64 should not smooth over this point )
F600.00000
X64.88860 Y44.57840
X65.06640 Y44.50220
X65.26960 Y44.32440
X65.44740 Y43.91800
X65.44740 Y43.28300
X65.26960 Y42.87660
X64.93940 Y42.62260
X64.58380 Y42.52100
X63.99960 Y42.54640
X63.59320 Y42.74960
X63.41540 Y42.95280
X63.28840 Y43.28300
X63.28840 Y43.91800
X63.46620 Y44.32440
X63.66940 Y44.50220
X63.99960 Y44.65460
X64.58380 Y44.68000
X64.83780 Y44.62920
X64.88860 Y44.57840
G04 P0 ( dwell for no time -- G64 should not smooth over this point )
G00 Z5.00000 ( retract )

G00 X65.16800 Y36.22180 ( rapid move to begin. )
F300.00000
G01 Z-0.05000
G04 P0 ( dwell for no time -- G64 should not smooth over this point )
F600.00000
X65.16800 Y36.22180
X65.32040 Y36.17100
X65.44740 Y36.04400
X65.44740 Y35.99320
X65.57440 Y35.86620
X65.62520 Y35.71380
X65.62520 Y35.07880
X65.52360 Y34.85020
X65.32040 Y34.62160
X65.16800 Y34.57080
X65.09180 Y34.49460
X64.93940 Y34.46920
X64.30440 Y34.49460
X64.17740 Y34.59620
X64.07580 Y34.62160
X63.87260 Y34.85020
X63.77100 Y35.07880
X63.77100 Y35.71380
X63.87260 Y35.94240
X64.07580 Y36.17100
X64.22820 Y36.22180
X64.30440 Y36.29800
X64.93940 Y36.32340
X65.09180 Y36.29800
X65.16800 Y36.22180
G04 P0 ( dwell for no time -- G64 should not smooth over this point )
G00 Z5.00000 ( retract )

G00 X65.16800 Y33.68180 ( rapid move to begin. )
F300.00000
G01 Z-0.05000
G04 P0 ( dwell for no time -- G64 should not smooth over this point )
F600.00000
X65.16800 Y33.68180
X65.32040 Y33.63100
X65.44740 Y33.50400
X65.44740 Y33.45320
X65.57440 Y33.32620
X65.62520 Y33.17380
X65.62520 Y32.53880
X65.52360 Y32.31020
X65.32040 Y32.08160
X65.16800 Y32.03080
X65.09180 Y31.95460
X64.93940 Y31.92920
X64.30440 Y31.95460
X64.17740 Y32.05620
X64.07580 Y32.08160
X63.87260 Y32.31020
X63.77100 Y32.53880
X63.77100 Y33.17380
X63.87260 Y33.40240
X64.07580 Y33.63100
X64.22820 Y33.68180
X64.30440 Y33.75800
X64.93940 Y33.78340
X65.09180 Y33.75800
X65.16800 Y33.68180
G04 P0 ( dwell for no time -- G64 should not smooth over this point )
G00 Z5.00000 ( retract )

G00 X65.16800 Y31.14180 ( rapid move to begin. )
F300.00000
G01 Z-0.05000
G04 P0 ( dwell for no time -- G64 should not smooth over this point )
F600.00000
X65.16800 Y31.14180
X65.32040 Y31.09100
X65.44740 Y30.96400
X65.44740 Y30.91320
X65.57440 Y30.78620
X65.62520 Y30.63380
X65.62520 Y29.99880
X65.52360 Y29.77020
X65.32040 Y29.54160
X65.16800 Y29.49080
X65.09180 Y29.41460
X64.93940 Y29.38920
X64.30440 Y29.41460
X64.17740 Y29.51620
X64.07580 Y29.54160
X63.87260 Y29.77020
X63.77100 Y29.99880
X63.77100 Y30.63380
X63.87260 Y30.86240
X64.07580 Y31.09100
X64.22820 Y31.14180
X64.30440 Y31.21800
X64.93940 Y31.24340
X65.09180 Y31.21800
X65.16800 Y31.14180
G04 P0 ( dwell for no time -- G64 should not smooth over this point )
G00 Z5.00000 ( retract )

G00 X65.16800 Y28.60180 ( rapid move to begin. )
F300.00000
G01 Z-0.05000
G04 P0 ( dwell for no time -- G64 should not smooth over this point )
F600.00000
X65.16800 Y28.60180
X65.32040 Y28.55100
X65.44740 Y28.42400
X65.44740 Y28.37320
X65.57440 Y28.24620
X65.62520 Y28.09380
X65.62520 Y27.45880
X65.52360 Y27.23020
X65.32040 Y27.00160
X65.16800 Y26.95080
X65.09180 Y26.87460
X64.93940 Y26.84920
X64.30440 Y26.87460
X64.17740 Y26.97620
X64.07580 Y27.00160
X63.87260 Y27.23020
X63.77100 Y27.45880
X63.77100 Y28.09380
X63.87260 Y28.32240
X64.07580 Y28.55100
X64.22820 Y28.60180
X64.30440 Y28.67800
X64.93940 Y28.70340
X65.09180 Y28.67800
X65.16800 Y28.60180
G04 P0 ( dwell for no time -- G64 should not smooth over this point )
G00 Z5.00000 ( retract )

G00 X65.16800 Y26.06180 ( rapid move to begin. )
F300.00000
G01 Z-0.05000
G04 P0 ( dwell for no time -- G64 should not smooth over this point )
F600.00000
X65.16800 Y26.06180
X65.32040 Y26.01100
X65.44740 Y25.88400
X65.44740 Y25.83320
X65.57440 Y25.70620
X65.62520 Y25.55380
X65.62520 Y24.91880
X65.52360 Y24.69020
X65.32040 Y24.46160
X65.16800 Y24.41080
X65.09180 Y24.33460
X64.93940 Y24.30920
X64.30440 Y24.33460
X64.17740 Y24.43620
X64.07580 Y24.46160
X63.87260 Y24.69020
X63.77100 Y24.91880
X63.77100 Y25.55380
X63.87260 Y25.78240
X64.07580 Y26.01100
X64.22820 Y26.06180
X64.30440 Y26.13800
X64.93940 Y26.16340
X65.09180 Y26.13800
X65.16800 Y26.06180
G04 P0 ( dwell for no time -- G64 should not smooth over this point )
G00 Z5.00000 ( retract )

G00 X65.16800 Y23.52180 ( rapid move to begin. )
F300.00000
G01 Z-0.05000
G04 P0 ( dwell for no time -- G64 should not smooth over this point )
F600.00000
X65.16800 Y23.52180
X65.32040 Y23.47100
X65.44740 Y23.34400
X65.44740 Y23.29320
X65.57440 Y23.16620
X65.62520 Y23.01380
X65.62520 Y22.37880
X65.52360 Y22.15020
X65.32040 Y21.92160
X65.16800 Y21.87080
X65.09180 Y21.79460
X64.93940 Y21.76920
X64.30440 Y21.79460
X64.17740 Y21.89620
X64.07580 Y21.92160
X63.87260 Y22.15020
X63.77100 Y22.37880
X63.77100 Y23.01380
X63.87260 Y23.24240
X64.07580 Y23.47100
X64.22820 Y23.52180
X64.30440 Y23.59800
X64.93940 Y23.62340
X65.09180 Y23.59800
X65.16800 Y23.52180
G04 P0 ( dwell for no time -- G64 should not smooth over this point )
G00 Z5.00000 ( retract )

G00 X65.16800 Y20.98180 ( rapid move to begin. )
F300.00000
G01 Z-0.05000
G04 P0 ( dwell for no time -- G64 should not smooth over this point )
F600.00000
X65.16800 Y20.98180
X65.32040 Y20.93100
X65.44740 Y20.80400
X65.44740 Y20.75320
X65.57440 Y20.62620
X65.62520 Y20.47380
X65.62520 Y19.83880
X65.52360 Y19.61020
X65.32040 Y19.38160
X65.16800 Y19.33080
X65.09180 Y19.25460
X64.93940 Y19.22920
X64.30440 Y19.25460
X64.17740 Y19.35620
X64.07580 Y19.38160
X63.87260 Y19.61020
X63.77100 Y19.83880
X63.77100 Y20.47380
X63.87260 Y20.70240
X64.07580 Y20.93100
X64.22820 Y20.98180
X64.30440 Y21.05800
X64.93940 Y21.08340
X65.09180 Y21.05800
X65.16800 Y20.98180
G04 P0 ( dwell for no time -- G64 should not smooth over this point )
G00 Z5.00000 ( retract )

G00 X65.16800 Y18.44180 ( rapid move to begin. )
F300.00000
G01 Z-0.05000
G04 P0 ( dwell for no time -- G64 should not smooth over this point )
F600.00000
X65.16800 Y18.44180
X65.32040 Y18.39100
X65.44740 Y18.26400
X65.44740 Y18.21320
X65.57440 Y18.08620
X65.62520 Y17.93380
X65.62520 Y17.29880
X65.52360 Y17.07020
X65.32040 Y16.84160
X65.16800 Y16.79080
X65.09180 Y16.71460
X64.93940 Y16.68920
X64.30440 Y16.71460
X64.17740 Y16.81620
X64.07580 Y16.84160
X63.82180 Y17.14640
X63.77100 Y17.29880
X63.77100 Y17.93380
X63.87260 Y18.16240
X64.07580 Y18.39100
X64.22820 Y18.44180
X64.30440 Y18.51800
X64.93940 Y18.54340
X65.09180 Y18.51800
X65.16800 Y18.44180
G04 P0 ( dwell for no time -- G64 should not smooth over this point )
G00 Z5.00000 ( retract )

G00 X47.10860 Y44.57840 ( rapid move to begin. )
F300.00000
G01 Z-0.05000
G04 P0 ( dwell for no time -- G64 should not smooth over this point )
F600.00000
X47.10860 Y44.57840
X47.28640 Y44.50220
X47.48960 Y44.32440
X47.66740 Y43.91800
X47.66740 Y43.28300
X47.48960 Y42.87660
X47.15940 Y42.62260
X46.80380 Y42.52100
X46.21960 Y42.54640
X45.81320 Y42.74960
X45.63540 Y42.95280
X45.50840 Y43.28300
X45.50840 Y43.91800
X45.68620 Y44.32440
X45.88940 Y44.50220
X46.21960 Y44.65460
X46.80380 Y44.68000
X47.05780 Y44.62920
X47.10860 Y44.57840
G04 P0 ( dwell for no time -- G64 should not smooth over this point )
G00 Z5.00000 ( retract )

G00 X38.16780 Y49.37900 ( rapid move to begin. )
F300.00000
G01 Z-0.05000
G04 P0 ( dwell for no time -- G64 should not smooth over this point )
F600.00000
X38.16780 Y49.37900
X38.44720 Y49.25200
X38.70120 Y49.02340
X38.70120 Y48.97260
X38.75200 Y48.94720
X38.77740 Y48.84560
X38.85360 Y48.76940
X38.92980 Y48.54080
X38.95520 Y47.82960
X38.82820 Y47.37240
X38.77740 Y47.34700
X38.70120 Y47.16920
X38.52340 Y46.99140
X38.16780 Y46.78820
X37.99000 Y46.73740
X37.27880 Y46.71200
X36.97400 Y46.78820
X36.72000 Y46.91520
X36.44060 Y47.16920
X36.44060 Y47.22000
X36.38980 Y47.24540
X36.36440 Y47.34700
X36.28820 Y47.42320
X36.21200 Y47.65180
X36.18660 Y48.36300
X36.31360 Y48.82020
X36.36440 Y48.84560
X36.44060 Y49.02340
X36.61840 Y49.20120
X37.05020 Y49.42980
X37.27880 Y49.48060
X37.86300 Y49.48060
X38.16780 Y49.37900
G04 P0 ( dwell for no time -- G64 should not smooth over this point )
G00 Z5.00000 ( retract )

G00 X33.92600 Y49.37900 ( rapid move to begin. )
F300.00000
G01 Z-0.05000
G04 P0 ( dwell for no time -- G64 should not smooth over this point )
F600.00000
X33.92600 Y49.37900
X33.97680 Y49.32820
X33.97680 Y46.86440
X33.90060 Y46.76280
X33.77360 Y46.71200
X31.41140 Y46.71200
X31.23360 Y46.81360
X31.20820 Y49.32820
X31.28440 Y49.42980
X31.41140 Y49.48060
X33.77360 Y49.48060
X33.90060 Y49.42980
X33.92600 Y49.37900
G04 P0 ( dwell for no time -- G64 should not smooth over this point )
G00 Z5.00000 ( retract )

G00 X23.58820 Y52.83340 ( rapid move to begin. )
F300.00000
G01 Z-0.05000
G04 P0 ( dwell for no time -- G64 should not smooth over this point )
F600.00000
X23.58820 Y52.83340
X23.76600 Y52.75720
X23.94380 Y52.57940
X24.07080 Y52.27460
X24.07080 Y51.63960
X23.94380 Y51.33480
X23.63900 Y51.08080
X23.30880 Y50.97920
X22.72460 Y51.00460
X22.41980 Y51.15700
X22.24200 Y51.33480
X22.11500 Y51.63960
X22.11500 Y52.27460
X22.24200 Y52.57940
X22.41980 Y52.75720
X22.72460 Y52.90960
X23.30880 Y52.93500
X23.53740 Y52.88420
X23.58820 Y52.83340
G04 P0 ( dwell for no time -- G64 should not smooth over this point )
G00 Z5.00000 ( retract )

G00 X22.39440 Y51.05540 ( rapid move to begin. )
F300.00000
G01 Z-0.05000
G04 P0 ( dwell for no time -- G64 should not smooth over this point )
F600.00000
X22.39440 Y51.05540
X22.47060 Y51.00460
X22.54680 Y50.82680
X22.54680 Y49.53140
X22.47060 Y49.35360
X22.24200 Y49.20120
X20.89580 Y49.20120
X20.74340 Y49.27740
X20.59100 Y49.50600
X20.59100 Y50.82680
X20.66720 Y51.00460
X20.89580 Y51.15700
X22.24200 Y51.15700
X22.39440 Y51.05540
G04 P0 ( dwell for no time -- G64 should not smooth over this point )
G00 Z5.00000 ( retract )

G00 X22.06420 Y54.35740 ( rapid move to begin. )
F300.00000
G01 Z-0.05000
G04 P0 ( dwell for no time -- G64 should not smooth over this point )
F600.00000
X22.06420 Y54.35740
X22.24200 Y54.28120
X22.41980 Y54.10340
X22.54680 Y53.79860
X22.54680 Y53.16360
X22.41980 Y52.85880
X22.11500 Y52.60480
X21.78480 Y52.50320
X21.20060 Y52.52860
X20.89580 Y52.68100
X20.71800 Y52.85880
X20.59100 Y53.16360
X20.59100 Y53.79860
X20.71800 Y54.10340
X20.89580 Y54.28120
X21.20060 Y54.43360
X21.78480 Y54.45900
X22.01340 Y54.40820
X22.06420 Y54.35740
G04 P0 ( dwell for no time -- G64 should not smooth over this point )
G00 Z5.00000 ( retract )

G00 X23.58820 Y55.88140 ( rapid move to begin. )
F300.00000
G01 Z-0.05000
G04 P0 ( dwell for no time -- G64 should not smooth over this point )
F600.00000
X23.58820 Y55.88140
X23.76600 Y55.80520
X23.94380 Y55.62740
X24.07080 Y55.32260
X24.07080 Y54.68760
X23.94380 Y54.38280
X23.63900 Y54.12880
X23.30880 Y54.02720
X22.72460 Y54.05260
X22.41980 Y54.20500
X22.24200 Y54.38280
X22.11500 Y54.68760
X22.11500 Y55.32260
X22.24200 Y55.62740
X22.41980 Y55.80520
X22.72460 Y55.95760
X23.30880 Y55.98300
X23.53740 Y55.93220
X23.58820 Y55.88140
G04 P0 ( dwell for no time -- G64 should not smooth over this point )
G00 Z5.00000 ( retract )

G00 X13.35200 Y55.80520 ( rapid move to begin. )
F300.00000
G01 Z-0.05000
G04 P0 ( dwell for no time -- G64 should not smooth over this point )
F600.00000
X13.35200 Y55.80520
X13.52980 Y55.72900
X13.73300 Y55.55120
X13.91080 Y55.14480
X13.91080 Y54.50980
X13.73300 Y54.10340
X13.40280 Y53.84940
X13.04720 Y53.74780
X12.46300 Y53.77320
X12.05660 Y53.97640
X11.87880 Y54.17960
X11.75180 Y54.50980
X11.75180 Y55.14480
X11.92960 Y55.55120
X12.13280 Y55.72900
X12.46300 Y55.88140
X13.04720 Y55.90680
X13.30120 Y55.85600
X13.35200 Y55.80520
G04 P0 ( dwell for no time -- G64 should not smooth over this point )
G00 Z5.00000 ( retract )

G00 X13.35200 Y51.30940 ( rapid move to begin. )
F300.00000
G01 Z-0.05000
G04 P0 ( dwell for no time -- G64 should not smooth over this point )
F600.00000
X13.35200 Y51.30940
X13.52980 Y51.23320
X13.73300 Y51.05540
X13.91080 Y50.64900
X13.91080 Y50.01400
X13.73300 Y49.60760
X13.40280 Y49.35360
X13.04720 Y49.25200
X12.46300 Y49.27740
X12.05660 Y49.48060
X11.87880 Y49.68380
X11.75180 Y50.01400
X11.75180 Y50.64900
X11.92960 Y51.05540
X12.13280 Y51.23320
X12.46300 Y51.38560
X13.04720 Y51.41100
X13.30120 Y51.36020
X13.35200 Y51.30940
G04 P0 ( dwell for no time -- G64 should not smooth over this point )
G00 Z5.00000 ( retract )

G00 X6.84960 Y51.30940 ( rapid move to begin. )
F300.00000
G01 Z-0.05000
G04 P0 ( dwell for no time -- G64 should not smooth over this point )
F600.00000
X6.84960 Y51.30940
X7.02740 Y51.23320
X7.23060 Y51.05540
X7.40840 Y50.64900
X7.40840 Y50.01400
X7.23060 Y49.60760
X6.90040 Y49.35360
X6.54480 Y49.25200
X5.96060 Y49.27740
X5.55420 Y49.48060
X5.37640 Y49.68380
X5.24940 Y50.01400
X5.24940 Y50.64900
X5.42720 Y51.05540
X5.63040 Y51.23320
X5.96060 Y51.38560
X6.54480 Y51.41100
X6.79880 Y51.36020
X6.84960 Y51.30940
G04 P0 ( dwell for no time -- G64 should not smooth over this point )
G00 Z5.00000 ( retract )

G00 X6.84960 Y55.80520 ( rapid move to begin. )
F300.00000
G01 Z-0.05000
G04 P0 ( dwell for no time -- G64 should not smooth over this point )
F600.00000
X6.84960 Y55.80520
X7.02740 Y55.72900
X7.23060 Y55.55120
X7.40840 Y55.14480
X7.40840 Y54.50980
X7.23060 Y54.10340
X6.90040 Y53.84940
X6.54480 Y53.74780
X5.96060 Y53.77320
X5.55420 Y53.97640
X5.37640 Y54.17960
X5.24940 Y54.50980
X5.24940 Y55.14480
X5.42720 Y55.55120
X5.63040 Y55.72900
X5.96060 Y55.88140
X6.54480 Y55.90680
X6.79880 Y55.85600
X6.84960 Y55.80520
G04 P0 ( dwell for no time -- G64 should not smooth over this point )
G00 Z5.00000 ( retract )

G00 X6.84960 Y66.32080 ( rapid move to begin. )
F300.00000
G01 Z-0.05000
G04 P0 ( dwell for no time -- G64 should not smooth over this point )
F600.00000
X6.84960 Y66.32080
X7.02740 Y66.24460
X7.23060 Y66.06680
X7.40840 Y65.66040
X7.40840 Y65.02540
X7.23060 Y64.61900
X6.90040 Y64.36500
X6.54480 Y64.26340
X5.96060 Y64.28880
X5.55420 Y64.49200
X5.37640 Y64.69520
X5.24940 Y65.02540
X5.24940 Y65.66040
X5.42720 Y66.06680
X5.63040 Y66.24460
X5.96060 Y66.39700
X6.54480 Y66.42240
X6.79880 Y66.37160
X6.84960 Y66.32080
G04 P0 ( dwell for no time -- G64 should not smooth over this point )
G00 Z5.00000 ( retract )

G00 X6.84960 Y70.81660 ( rapid move to begin. )
F300.00000
G01 Z-0.05000
G04 P0 ( dwell for no time -- G64 should not smooth over this point )
F600.00000
X6.84960 Y70.81660
X7.02740 Y70.74040
X7.23060 Y70.56260
X7.40840 Y70.15620
X7.40840 Y69.52120
X7.23060 Y69.11480
X6.90040 Y68.86080
X6.54480 Y68.75920
X5.96060 Y68.78460
X5.55420 Y68.98780
X5.37640 Y69.19100
X5.24940 Y69.52120
X5.24940 Y70.15620
X5.42720 Y70.56260
X5.63040 Y70.74040
X5.96060 Y70.89280
X6.54480 Y70.91820
X6.79880 Y70.86740
X6.84960 Y70.81660
G04 P0 ( dwell for no time -- G64 should not smooth over this point )
G00 Z5.00000 ( retract )

G00 X13.35200 Y70.81660 ( rapid move to begin. )
F300.00000
G01 Z-0.05000
G04 P0 ( dwell for no time -- G64 should not smooth over this point )
F600.00000
X13.35200 Y70.81660
X13.52980 Y70.74040
X13.73300 Y70.56260
X13.91080 Y70.15620
X13.91080 Y69.52120
X13.73300 Y69.11480
X13.40280 Y68.86080
X13.04720 Y68.75920
X12.46300 Y68.78460
X12.05660 Y68.98780
X11.87880 Y69.19100
X11.75180 Y69.52120
X11.75180 Y70.15620
X11.92960 Y70.56260
X12.13280 Y70.74040
X12.46300 Y70.89280
X13.04720 Y70.91820
X13.30120 Y70.86740
X13.35200 Y70.81660
G04 P0 ( dwell for no time -- G64 should not smooth over this point )
G00 Z5.00000 ( retract )

G00 X13.35200 Y66.32080 ( rapid move to begin. )
F300.00000
G01 Z-0.05000
G04 P0 ( dwell for no time -- G64 should not smooth over this point )
F600.00000
X13.35200 Y66.32080
X13.52980 Y66.24460
X13.73300 Y66.06680
X13.91080 Y65.66040
X13.91080 Y65.02540
X13.73300 Y64.61900
X13.40280 Y64.36500
X13.04720 Y64.26340
X12.46300 Y64.28880
X12.05660 Y64.49200
X11.87880 Y64.69520
X11.75180 Y65.02540
X11.75180 Y65.66040
X11.92960 Y66.06680
X12.13280 Y66.24460
X12.46300 Y66.39700
X13.04720 Y66.42240
X13.30120 Y66.37160
X13.35200 Y66.32080
G04 P0 ( dwell for no time -- G64 should not smooth over this point )
G00 Z5.00000 ( retract )

G00 X22.39440 Y66.06680 ( rapid move to begin. )
F300.00000
G01 Z-0.05000
G04 P0 ( dwell for no time -- G64 should not smooth over this point )
F600.00000
X22.39440 Y66.06680
X22.52140 Y65.93980
X22.54680 Y65.83820
X22.54680 Y64.54280
X22.47060 Y64.36500
X22.24200 Y64.21260
X20.89580 Y64.21260
X20.74340 Y64.28880
X20.59100 Y64.51740
X20.59100 Y65.83820
X20.66720 Y66.01600
X20.89580 Y66.16840
X22.24200 Y66.16840
X22.39440 Y66.06680
G04 P0 ( dwell for no time -- G64 should not smooth over this point )
G00 Z5.00000 ( retract )

G00 X23.58820 Y67.84480 ( rapid move to begin. )
F300.00000
G01 Z-0.05000
G04 P0 ( dwell for no time -- G64 should not smooth over this point )
F600.00000
X23.58820 Y67.84480
X23.76600 Y67.76860
X23.94380 Y67.59080
X24.07080 Y67.28600
X24.07080 Y66.65100
X23.94380 Y66.34620
X23.63900 Y66.09220
X23.30880 Y65.99060
X22.72460 Y66.01600
X22.41980 Y66.16840
X22.24200 Y66.34620
X22.11500 Y66.65100
X22.11500 Y67.28600
X22.24200 Y67.59080
X22.41980 Y67.76860
X22.72460 Y67.92100
X23.30880 Y67.94640
X23.53740 Y67.89560
X23.58820 Y67.84480
G04 P0 ( dwell for no time -- G64 should not smooth over this point )
G00 Z5.00000 ( retract )

G00 X22.06420 Y69.36880 ( rapid move to begin. )
F300.00000
G01 Z-0.05000
G04 P0 ( dwell for no time -- G64 should not smooth over this point )
F600.00000
X22.06420 Y69.36880
X22.24200 Y69.29260
X22.41980 Y69.11480
X22.54680 Y68.81000
X22.54680 Y68.17500
X22.41980 Y67.87020
X22.11500 Y67.61620
X21.78480 Y67.51460
X21.20060 Y67.54000
X20.89580 Y67.69240
X20.71800 Y67.87020
X20.59100 Y68.17500
X20.59100 Y68.81000
X20.71800 Y69.11480
X20.89580 Y69.29260
X21.20060 Y69.44500
X21.78480 Y69.47040
X22.01340 Y69.41960
X22.06420 Y69.36880
G04 P0 ( dwell for no time -- G64 should not smooth over this point )
G00 Z5.00000 ( retract )

G00 X23.58820 Y70.89280 ( rapid move to begin. )
F300.00000
G01 Z-0.05000
G04 P0 ( dwell for no time -- G64 should not smooth over this point )
F600.00000
X23.58820 Y70.89280
X23.76600 Y70.81660
X23.94380 Y70.63880
X24.07080 Y70.33400
X24.07080 Y69.69900
X23.94380 Y69.39420
X23.63900 Y69.14020
X23.30880 Y69.03860
X22.72460 Y69.06400
X22.41980 Y69.21640
X22.24200 Y69.39420
X22.11500 Y69.69900
X22.11500 Y70.33400
X22.24200 Y70.63880
X22.41980 Y70.81660
X22.72460 Y70.96900
X23.30880 Y70.99440
X23.53740 Y70.94360
X23.58820 Y70.89280
G04 P0 ( dwell for no time -- G64 should not smooth over this point )
G00 Z5.00000 ( retract )

G00 X47.10860 Y69.87680 ( rapid move to begin. )
F300.00000
G01 Z-0.05000
G04 P0 ( dwell for no time -- G64 should not smooth over this point )
F600.00000
X47.10860 Y69.87680
X47.36260 Y69.74980
X47.48960 Y69.62280
X47.66740 Y69.21640
X47.66740 Y68.58140
X47.48960 Y68.17500
X47.15940 Y67.92100
X46.80380 Y67.81940
X46.21960 Y67.84480
X45.81320 Y68.04800
X45.63540 Y68.25120
X45.50840 Y68.58140
X45.50840 Y69.21640
X45.68620 Y69.62280
X45.88940 Y69.80060
X46.21960 Y69.95300
X46.80380 Y69.97840
X47.05780 Y69.92760
X47.10860 Y69.87680
G04 P0 ( dwell for no time -- G64 should not smooth over this point )
G00 Z5.00000 ( retract )

G00 X49.64860 Y69.87680 ( rapid move to begin. )
F300.00000
G01 Z-0.05000
G04 P0 ( dwell for no time -- G64 should not smooth over this point )
F600.00000
X49.64860 Y69.87680
X49.82640 Y69.80060
X50.02960 Y69.62280
X50.20740 Y69.21640
X50.20740 Y68.58140
X50.02960 Y68.17500
X49.69940 Y67.92100
X49.34380 Y67.81940
X48.75960 Y67.84480
X48.35320 Y68.04800
X48.17540 Y68.25120
X48.04840 Y68.58140
X48.04840 Y69.21640
X48.22620 Y69.62280
X48.42940 Y69.80060
X48.75960 Y69.95300
X49.34380 Y69.97840
X49.59780 Y69.92760
X49.64860 Y69.87680
G04 P0 ( dwell for no time -- G64 should not smooth over this point )
G00 Z5.00000 ( retract )

G00 X52.18860 Y69.87680 ( rapid move to begin. )
F300.00000
G01 Z-0.05000
G04 P0 ( dwell for no time -- G64 should not smooth over this point )
F600.00000
X52.18860 Y69.87680
X52.36640 Y69.80060
X52.56960 Y69.62280
X52.74740 Y69.21640
X52.74740 Y68.58140
X52.56960 Y68.17500
X52.23940 Y67.92100
X51.88380 Y67.81940
X51.29960 Y67.84480
X50.89320 Y68.04800
X50.71540 Y68.25120
X50.58840 Y68.58140
X50.58840 Y69.21640
X50.76620 Y69.62280
X50.96940 Y69.80060
X51.29960 Y69.95300
X51.88380 Y69.97840
X52.13780 Y69.92760
X52.18860 Y69.87680
G04 P0 ( dwell for no time -- G64 should not smooth over this point )
G00 Z5.00000 ( retract )

G00 X54.72860 Y69.87680 ( rapid move to begin. )
F300.00000
G01 Z-0.05000
G04 P0 ( dwell for no time -- G64 should not smooth over this point )
F600.00000
X54.72860 Y69.87680
X54.98260 Y69.74980
X55.10960 Y69.62280
X55.28740 Y69.21640
X55.28740 Y68.58140
X55.10960 Y68.17500
X54.77940 Y67.92100
X54.42380 Y67.81940
X53.83960 Y67.84480
X53.43320 Y68.04800
X53.25540 Y68.25120
X53.12840 Y68.58140
X53.12840 Y69.21640
X53.30620 Y69.62280
X53.50940 Y69.80060
X53.83960 Y69.95300
X54.42380 Y69.97840
X54.67780 Y69.92760
X54.72860 Y69.87680
G04 P0 ( dwell for no time -- G64 should not smooth over this point )
G00 Z5.00000 ( retract )

G00 X57.26860 Y69.87680 ( rapid move to begin. )
F300.00000
G01 Z-0.05000
G04 P0 ( dwell for no time -- G64 should not smooth over this point )
F600.00000
X57.26860 Y69.87680
X57.52260 Y69.74980
X57.64960 Y69.62280
X57.82740 Y69.21640
X57.82740 Y68.58140
X57.64960 Y68.17500
X57.31940 Y67.92100
X56.96380 Y67.81940
X56.37960 Y67.84480
X55.97320 Y68.04800
X55.79540 Y68.25120
X55.66840 Y68.58140
X55.66840 Y69.21640
X55.84620 Y69.62280
X56.04940 Y69.80060
X56.37960 Y69.95300
X56.96380 Y69.97840
X57.21780 Y69.92760
X57.26860 Y69.87680
G04 P0 ( dwell for no time -- G64 should not smooth over this point )
G00 Z5.00000 ( retract )

G00 X59.80860 Y69.87680 ( rapid move to begin. )
F300.00000
G01 Z-0.05000
G04 P0 ( dwell for no time -- G64 should not smooth over this point )
F600.00000
X59.80860 Y69.87680
X59.98640 Y69.80060
X60.18960 Y69.62280
X60.36740 Y69.21640
X60.36740 Y68.58140
X60.18960 Y68.17500
X59.85940 Y67.92100
X59.50380 Y67.81940
X58.91960 Y67.84480
X58.51320 Y68.04800
X58.33540 Y68.25120
X58.20840 Y68.58140
X58.20840 Y69.21640
X58.38620 Y69.62280
X58.58940 Y69.80060
X58.91960 Y69.95300
X59.50380 Y69.97840
X59.75780 Y69.92760
X59.80860 Y69.87680
G04 P0 ( dwell for no time -- G64 should not smooth over this point )
G00 Z5.00000 ( retract )

G00 X62.34860 Y69.87680 ( rapid move to begin. )
F300.00000
G01 Z-0.05000
G04 P0 ( dwell for no time -- G64 should not smooth over this point )
F600.00000
X62.34860 Y69.87680
X62.52640 Y69.80060
X62.72960 Y69.62280
X62.90740 Y69.21640
X62.90740 Y68.58140
X62.72960 Y68.17500
X62.39940 Y67.92100
X62.04380 Y67.81940
X61.45960 Y67.84480
X61.05320 Y68.04800
X60.87540 Y68.25120
X60.74840 Y68.58140
X60.74840 Y69.21640
X60.92620 Y69.62280
X61.12940 Y69.80060
X61.45960 Y69.95300
X62.04380 Y69.97840
X62.29780 Y69.92760
X62.34860 Y69.87680
G04 P0 ( dwell for no time -- G64 should not smooth over this point )
G00 Z5.00000 ( retract )

G00 X64.88860 Y69.87680 ( rapid move to begin. )
F300.00000
G01 Z-0.05000
G04 P0 ( dwell for no time -- G64 should not smooth over this point )
F600.00000
X64.88860 Y69.87680
X65.06640 Y69.80060
X65.26960 Y69.62280
X65.44740 Y69.21640
X65.44740 Y68.58140
X65.26960 Y68.17500
X64.93940 Y67.92100
X64.58380 Y67.81940
X63.99960 Y67.84480
X63.59320 Y68.04800
X63.41540 Y68.25120
X63.28840 Y68.58140
X63.28840 Y69.21640
X63.46620 Y69.62280
X63.66940 Y69.80060
X63.99960 Y69.95300
X64.58380 Y69.97840
X64.83780 Y69.92760
X64.88860 Y69.87680
G04 P0 ( dwell for no time -- G64 should not smooth over this point )
G00 Z5.00000 ( retract )

G00 X23.58820 Y40.87000 ( rapid move to begin. )
F300.00000
G01 Z-0.05000
G04 P0 ( dwell for no time -- G64 should not smooth over this point )
F600.00000
X23.58820 Y40.87000
X23.76600 Y40.79380
X23.94380 Y40.61600
X24.07080 Y40.31120
X24.07080 Y39.67620
X23.94380 Y39.37140
X23.63900 Y39.11740
X23.30880 Y39.01580
X22.72460 Y39.04120
X22.41980 Y39.19360
X22.24200 Y39.37140
X22.11500 Y39.67620
X22.11500 Y40.31120
X22.24200 Y40.61600
X22.41980 Y40.79380
X22.72460 Y40.94620
X23.30880 Y40.97160
X23.53740 Y40.92080
X23.58820 Y40.87000
G04 P0 ( dwell for no time -- G64 should not smooth over this point )
G00 Z5.00000 ( retract )

G00 X22.06420 Y39.34600 ( rapid move to begin. )
F300.00000
G01 Z-0.05000
G04 P0 ( dwell for no time -- G64 should not smooth over this point )
F600.00000
X22.06420 Y39.34600
X22.24200 Y39.26980
X22.41980 Y39.09200
X22.54680 Y38.78720
X22.54680 Y38.15220
X22.41980 Y37.84740
X22.11500 Y37.59340
X21.78480 Y37.49180
X21.20060 Y37.51720
X20.89580 Y37.66960
X20.71800 Y37.84740
X20.59100 Y38.15220
X20.59100 Y38.78720
X20.71800 Y39.09200
X20.89580 Y39.26980
X21.20060 Y39.42220
X21.78480 Y39.44760
X22.01340 Y39.39680
X22.06420 Y39.34600
G04 P0 ( dwell for no time -- G64 should not smooth over this point )
G00 Z5.00000 ( retract )

G00 X23.58820 Y37.82200 ( rapid move to begin. )
F300.00000
G01 Z-0.05000
G04 P0 ( dwell for no time -- G64 should not smooth over this point )
F600.00000
X23.58820 Y37.82200
X23.76600 Y37.74580
X23.94380 Y37.56800
X24.07080 Y37.26320
X24.07080 Y36.62820
X23.94380 Y36.32340
X23.63900 Y36.06940
X23.30880 Y35.96780
X22.72460 Y35.99320
X22.41980 Y36.14560
X22.24200 Y36.32340
X22.11500 Y36.62820
X22.11500 Y37.26320
X22.24200 Y37.56800
X22.41980 Y37.74580
X22.72460 Y37.89820
X23.30880 Y37.92360
X23.53740 Y37.87280
X23.58820 Y37.82200
G04 P0 ( dwell for no time -- G64 should not smooth over this point )
G00 Z5.00000 ( retract )

G00 X22.39440 Y36.04400 ( rapid move to begin. )
F300.00000
G01 Z-0.05000
G04 P0 ( dwell for no time -- G64 should not smooth over this point )
F600.00000
X22.39440 Y36.04400
X22.47060 Y35.99320
X22.54680 Y35.81540
X22.54680 Y34.52000
X22.47060 Y34.34220
X22.24200 Y34.18980
X20.89580 Y34.18980
X20.74340 Y34.26600
X20.59100 Y34.49460
X20.59100 Y35.81540
X20.66720 Y35.99320
X20.89580 Y36.14560
X22.24200 Y36.14560
X22.39440 Y36.04400
G04 P0 ( dwell for no time -- G64 should not smooth over this point )
G00 Z5.00000 ( retract )

G00 X13.35200 Y36.32340 ( rapid move to begin. )
F300.00000
G01 Z-0.05000
G04 P0 ( dwell for no time -- G64 should not smooth over this point )
F600.00000
X13.35200 Y36.32340
X13.52980 Y36.24720
X13.73300 Y36.06940
X13.91080 Y35.66300
X13.91080 Y35.02800
X13.73300 Y34.62160
X13.40280 Y34.36760
X13.04720 Y34.26600
X12.46300 Y34.29140
X12.05660 Y34.49460
X11.87880 Y34.69780
X11.75180 Y35.02800
X11.75180 Y35.66300
X11.92960 Y36.06940
X12.13280 Y36.24720
X12.46300 Y36.39960
X13.04720 Y36.42500
X13.30120 Y36.37420
X13.35200 Y36.32340
G04 P0 ( dwell for no time -- G64 should not smooth over this point )
G00 Z5.00000 ( retract )

G00 X13.35200 Y40.81920 ( rapid move to begin. )
F300.00000
G01 Z-0.05000
G04 P0 ( dwell for no time -- G64 should not smooth over this point )
F600.00000
X13.35200 Y40.81920
X13.52980 Y40.74300
X13.73300 Y40.56520
X13.91080 Y40.15880
X13.91080 Y39.52380
X13.73300 Y39.11740
X13.40280 Y38.86340
X13.04720 Y38.76180
X12.46300 Y38.78720
X12.05660 Y38.99040
X11.87880 Y39.19360
X11.75180 Y39.52380
X11.75180 Y40.15880
X11.92960 Y40.56520
X12.13280 Y40.74300
X12.46300 Y40.89540
X13.04720 Y40.92080
X13.30120 Y40.87000
X13.35200 Y40.81920
G04 P0 ( dwell for no time -- G64 should not smooth over this point )
G00 Z5.00000 ( retract )

G00 X6.84960 Y40.81920 ( rapid move to begin. )
F300.00000
G01 Z-0.05000
G04 P0 ( dwell for no time -- G64 should not smooth over this point )
F600.00000
X6.84960 Y40.81920
X7.02740 Y40.74300
X7.23060 Y40.56520
X7.40840 Y40.15880
X7.40840 Y39.52380
X7.23060 Y39.11740
X6.90040 Y38.86340
X6.54480 Y38.76180
X5.96060 Y38.78720
X5.55420 Y38.99040
X5.37640 Y39.19360
X5.24940 Y39.52380
X5.24940 Y40.15880
X5.42720 Y40.56520
X5.63040 Y40.74300
X5.96060 Y40.89540
X6.54480 Y40.92080
X6.79880 Y40.87000
X6.84960 Y40.81920
G04 P0 ( dwell for no time -- G64 should not smooth over this point )
G00 Z5.00000 ( retract )

G00 X6.84960 Y36.32340 ( rapid move to begin. )
F300.00000
G01 Z-0.05000
G04 P0 ( dwell for no time -- G64 should not smooth over this point )
F600.00000
X6.84960 Y36.32340
X7.02740 Y36.24720
X7.23060 Y36.06940
X7.40840 Y35.66300
X7.40840 Y35.02800
X7.23060 Y34.62160
X6.90040 Y34.36760
X6.54480 Y34.26600
X5.96060 Y34.29140
X5.55420 Y34.49460
X5.37640 Y34.69780
X5.24940 Y35.02800
X5.24940 Y35.66300
X5.42720 Y36.06940
X5.63040 Y36.24720
X5.96060 Y36.39960
X6.54480 Y36.42500
X6.79880 Y36.37420
X6.84960 Y36.32340
G04 P0 ( dwell for no time -- G64 should not smooth over this point )
G00 Z5.00000 ( retract )

G00 X6.84960 Y25.80780 ( rapid move to begin. )
F300.00000
G01 Z-0.05000
G04 P0 ( dwell for no time -- G64 should not smooth over this point )
F600.00000
X6.84960 Y25.80780
X7.02740 Y25.73160
X7.23060 Y25.55380
X7.40840 Y25.14740
X7.40840 Y24.51240
X7.23060 Y24.10600
X6.90040 Y23.85200
X6.54480 Y23.75040
X5.96060 Y23.77580
X5.55420 Y23.97900
X5.37640 Y24.18220
X5.24940 Y24.51240
X5.24940 Y25.14740
X5.42720 Y25.55380
X5.63040 Y25.73160
X5.96060 Y25.88400
X6.54480 Y25.90940
X6.79880 Y25.85860
X6.84960 Y25.80780
G04 P0 ( dwell for no time -- G64 should not smooth over this point )
G00 Z5.00000 ( retract )

G00 X6.84960 Y21.31200 ( rapid move to begin. )
F300.00000
G01 Z-0.05000
G04 P0 ( dwell for no time -- G64 should not smooth over this point )
F600.00000
X6.84960 Y21.31200
X7.10360 Y21.18500
X7.23060 Y21.05800
X7.40840 Y20.65160
X7.40840 Y20.01660
X7.23060 Y19.61020
X6.90040 Y19.35620
X6.54480 Y19.25460
X5.96060 Y19.28000
X5.55420 Y19.48320
X5.37640 Y19.68640
X5.24940 Y20.01660
X5.24940 Y20.65160
X5.42720 Y21.05800
X5.63040 Y21.23580
X5.96060 Y21.38820
X6.54480 Y21.41360
X6.79880 Y21.36280
X6.84960 Y21.31200
G04 P0 ( dwell for no time -- G64 should not smooth over this point )
G00 Z5.00000 ( retract )

G00 X13.35200 Y21.31200 ( rapid move to begin. )
F300.00000
G01 Z-0.05000
G04 P0 ( dwell for no time -- G64 should not smooth over this point )
F600.00000
X13.35200 Y21.31200
X13.60600 Y21.18500
X13.73300 Y21.05800
X13.91080 Y20.65160
X13.91080 Y20.01660
X13.73300 Y19.61020
X13.40280 Y19.35620
X13.04720 Y19.25460
X12.46300 Y19.28000
X12.05660 Y19.48320
X11.87880 Y19.68640
X11.75180 Y20.01660
X11.75180 Y20.65160
X11.92960 Y21.05800
X12.13280 Y21.23580
X12.46300 Y21.38820
X13.04720 Y21.41360
X13.30120 Y21.36280
X13.35200 Y21.31200
G04 P0 ( dwell for no time -- G64 should not smooth over this point )
G00 Z5.00000 ( retract )

G00 X13.35200 Y25.80780 ( rapid move to begin. )
F300.00000
G01 Z-0.05000
G04 P0 ( dwell for no time -- G64 should not smooth over this point )
F600.00000
X13.35200 Y25.80780
X13.52980 Y25.73160
X13.73300 Y25.55380
X13.91080 Y25.14740
X13.91080 Y24.51240
X13.73300 Y24.10600
X13.40280 Y23.85200
X13.04720 Y23.75040
X12.46300 Y23.77580
X12.05660 Y23.97900
X11.87880 Y24.18220
X11.75180 Y24.51240
X11.75180 Y25.14740
X11.92960 Y25.55380
X12.13280 Y25.73160
X12.46300 Y25.88400
X13.04720 Y25.90940
X13.30120 Y25.85860
X13.35200 Y25.80780

G04 P0 ( dwell for no time -- G64 should not smooth over this point )
G00 Z10.000 ( retract )

M5 ( Spindle off. )
M9 ( Coolant off. )
M2 ( Program end. )

