( pcb2gcode 1.3.2 )
( Software-independent Gcode )

G94 ( Millimeters per minute feed rate. )
G21 ( Units == Millimeters. )

G90 ( Absolute coordinates. )
S10000 ( RPM spindle speed. )
G64 P0.01000 ( set maximum deviation from commanded toolpath )
F600.00000 ( Feedrate. )

F600.00000 ( Feedrate. )
M3 ( Spindle on clockwise. )
G04 P0 ( dwell for no time -- G64 should not smooth over this point )
G00 Z5.00000 ( retract )

G00 X68.16520 Y74.52500 ( rapid move to begin. )
G01 Z-2.50000 F300.00000 ( plunge. )
G04 P0 ( dwell for no time -- G64 should not smooth over this point )
F600.00000
X68.16520 Y74.52500
X68.47000 Y74.39800
X68.49540 Y74.34720
X68.59700 Y74.32180
X68.62240 Y74.27100
X68.87640 Y74.14400
X69.13040 Y73.91540
X69.18120 Y73.91540
X69.74000 Y73.38200
X69.74000 Y73.33120
X69.91780 Y73.17880
X69.91780 Y73.12800
X70.19720 Y72.79780
X70.22260 Y72.69620
X70.27340 Y72.67080
X70.29880 Y72.56920
X70.34960 Y72.54380
X70.55280 Y72.16280
X70.55280 Y72.08660
X70.73060 Y71.73100
X70.75600 Y71.57860
X70.80680 Y71.52780
X70.95920 Y70.86740
X71.03540 Y70.05460
X71.03540 Y17.14640
X71.01000 Y16.63840
X70.95920 Y16.48600
X70.93380 Y16.15580
X70.65440 Y15.24140
X70.27340 Y14.50480
X70.22260 Y14.47940
X70.12100 Y14.27620
X70.04480 Y14.22540
X70.04480 Y14.17460
X69.96860 Y14.12380
X69.96860 Y14.07300
X69.89240 Y14.02220
X69.89240 Y13.97140
X69.68920 Y13.79360
X69.68920 Y13.74280
X69.43520 Y13.48880
X69.38440 Y13.48880
X69.18120 Y13.26020
X69.05420 Y13.20940
X68.80020 Y12.98080
X68.57160 Y12.87920
X68.47000 Y12.77760
X67.88580 Y12.49820
X67.65720 Y12.44740
X67.45400 Y12.34580
X66.56500 Y12.16800
X48.68340 Y12.14260
X47.92140 Y12.04100
X47.84520 Y11.99020
X47.38800 Y11.88860
X47.33720 Y11.83780
X47.10860 Y11.78700
X46.90540 Y11.66000
X46.82920 Y11.66000
X46.57520 Y11.53300
X46.47360 Y11.43140
X46.37200 Y11.40600
X46.34660 Y11.35520
X46.24500 Y11.32980
X45.91480 Y11.05040
X45.86400 Y11.05040
X45.27980 Y10.49160
X45.27980 Y10.44080
X45.12740 Y10.31380
X45.12740 Y10.26300
X45.05120 Y10.21220
X45.05120 Y10.16140
X44.97500 Y10.11060
X44.97500 Y10.05980
X44.79720 Y9.85660
X44.36540 Y9.01840
X44.11140 Y8.15480
X44.03520 Y7.64680
X44.03520 Y5.13220
X43.93360 Y4.14160
X43.88280 Y4.06540
X43.80660 Y3.65900
X43.65420 Y3.32880
X43.62880 Y3.17640
X43.32400 Y2.59220
X43.27320 Y2.56680
X43.14620 Y2.31280
X43.07000 Y2.26200
X43.07000 Y2.21120
X42.99380 Y2.16040
X42.94300 Y2.03340
X42.81600 Y1.93180
X42.81600 Y1.88100
X42.30800 Y1.37300
X42.25720 Y1.37300
X42.15560 Y1.24600
X42.10480 Y1.24600
X42.05400 Y1.16980
X41.90160 Y1.09360
X41.85080 Y1.01740
X41.67300 Y0.94120
X41.57140 Y0.83960
X41.46980 Y0.81420
X41.44440 Y0.76340
X41.13960 Y0.61100
X41.06340 Y0.61100
X40.91100 Y0.50940
X39.97120 Y0.23000
X39.41240 Y0.15380
X4.74140 Y0.15380
X4.05560 Y0.25540
X3.97940 Y0.30620
X3.67460 Y0.35700
X3.47140 Y0.45860
X3.24280 Y0.50940
X2.37920 Y0.96660
X2.04900 Y1.24600
X1.99820 Y1.24600
X1.84580 Y1.42380
X1.79500 Y1.42380
X1.23620 Y2.00800
X1.23620 Y2.05880
X1.00760 Y2.31280
X1.00760 Y2.36360
X0.95680 Y2.38900
X0.93140 Y2.49060
X0.88060 Y2.51600
X0.85520 Y2.61760
X0.80440 Y2.64300
X0.77900 Y2.74460
X0.67740 Y2.87160
X0.67740 Y2.94780
X0.49960 Y3.25260
X0.44880 Y3.48120
X0.34720 Y3.68440
X0.22020 Y4.19240
X0.14400 Y4.75120
X0.14400 Y36.84340
Z-0.60000
X0.14400 Y38.34340
Z-2.50000 F300.00000
F600.00000X0.14400 Y70.43560
X0.22020 Y70.99440
X0.34720 Y71.50240
X0.42340 Y71.62940
X0.52500 Y71.98500
X0.77900 Y72.49300
X0.90600 Y72.64540
X0.93140 Y72.74700
X1.10920 Y72.95020
X1.10920 Y73.00100
X1.18540 Y73.05180
X1.18540 Y73.10260
X1.26160 Y73.15340
X1.26160 Y73.20420
X1.49020 Y73.40740
X1.49020 Y73.45820
X1.71880 Y73.68680
X1.76960 Y73.68680
X1.97280 Y73.91540
X2.20140 Y74.04240
X2.35380 Y74.19480
X2.45540 Y74.22020
X2.68400 Y74.39800
X3.19200 Y74.65200
X4.10640 Y74.93140
X4.89380 Y75.03300
X34.83970 Y75.03300
Z-0.60000
X36.33970 Y75.03300
Z-2.50000 F300.00000
F600.00000X66.28560 Y75.03300
X67.17460 Y74.90600
X67.96200 Y74.65200
X68.16520 Y74.52500

G04 P0 ( dwell for no time -- G64 should not smooth over this point )
G00 Z10.000 ( retract )

M5 ( Spindle off. )
M9 ( Coolant off. )
M2 ( Program end. )

